{"type":"FeatureCollection","features":[{"type":"Feature","properties":{"province_name":"  ","name_fa":"
 "},"geometry":{"type":"Polygon","coordinates":[[[58.0196353,36.5830045],[57.9382428,36.5841636],[57.7773976,
36.6302737],[57.4898883,36.7691637],[57.03292,36.8713972],[56.7212399,36.7988951],[56.6512373,36.7677781],[56.5320652,36
.6675034],[56.5017855,36.6644417],[56.4465028,36.6941673],[56.3595572,36.6827762],[56.3651105,36.7530568],[56.2645516,36
.8380601],[56.2214921,36.9008362],[56.0145378,36.8344501],[55.9842616,36.9000082],[55.9791784,36.9962453],[56.0145379,37
.0069571],[56.0400978,37.1002915],[55.9942616,37.1191819],[56.0628744,37.1608486],[56.0087049,37.2344567],[55.9514823,37
.2044565],[55.9087027,37.2055724],[55.908423,37.3323405],[56.013985,37.366409],[56.0012054,37.4425221],[56.0584315,37.51
91926],[56.0612082,37.5722467],[56.118711,37.6347476],[56.2156603,37.8594822],[56.2803861,37.8672577],[56.3103894,37.910
3136],[56.2889756,38.0846583],[56.335248,38.0772496],[56.352079,38.1171643],[56.319101,38.176137],[56.3327792,38.1975537

],[56.442778,38.26],[56.546667,38.266111],[56.613889,38.240556],[56.756389,38.285],[56.8404712,38.2298997],[56.9919985,3
8.2143439],[57.0122329,38.1871898],[57.025,38.201944],[57.076111,38.199444],[57.183675,38.2841776],[57.216285,38.2804549
],[57.243889,38.270833],[57.288333,38.170556],[57.371111,38.093056],[57.356944,37.985833],[57.5121923,37.919263],[57.579
6241,37.9380422],[57.7203676,37.9218564],[57.7541404,37.8974949],[57.7958352,37.899553],[57.8254738,37.8632465],[57.8915
765,37.8707624],[58.0278554,37.8059025],[58.2054052,37.7743691],[58.2287711,37.7296962],[58.2270467,37.6840365],[58.3112
048,37.662222],[58.3709134,37.5846745],[58.3549337,37.4083545],[58.3160405,37.3558537],[58.3274269,37.32585],[58.4229856
,37.2563997],[58.3896527,37.2119583],[58.3243732,37.1994596],[58.3049269,37.1680631],[58.2429806,37.1811205],[58.1590148
,37.0751305],[58.2440936,37.046954],[58.2496468,37.0200059],[58.2927063,37.002787],[58.3010527,36.9644639],[58.2588132,3
6.9108352],[58.1343611,36.8647246],[58.0988083,36.8688929],[58.1107479,36.7727824],[58.0879746,36.722503],[58.1032478,36
.63139],[58.0824144,36.5999959],[58.0196353,36.5830045]]]}},{"type":"Feature","properties":{"province_name":" 
 ","name_fa":" "},"geometry":{"type":"Polygon","coordinates":[[[60.533076,34.0002495],[60.3344603,33.9838
216],[60.1830615,33.8668734],[60.1441686,33.856312],[60.0880562,33.9277046],[59.9912849,34.004841],[59.610536,34.0154875
],[59.5360906,34.1040964],[59.347193,34.1079869],[59.2594074,34.1499297],[59.162462,34.1190981],[59.0441236,34.1238187],
[58.9796708,34.0946565],[58.8638325,34.1143781],[58.7857734,34.0818761],[58.7057745,34.099937],[58.6363217,34.0216001],[
58.4652041,34.1274391],[58.3707267,34.2893055],[58.3201997,34.3146603],[58.2640871,34.3213297],[58.1890811,34.2416029],[
58.0710226,34.2349424],[58.0351832,34.2391031],[57.9160113,34.32161],[57.7660067,34.3471594],[57.6404487,34.5205058],[57
.5566901,34.598],[57.7021148,34.774395],[57.7865737,34.822289],[57.7115619,34.9199611],[57.5729435,35.0001039],[57.55294
4,35.0591252],[57.5157178,35.0713477],[57.3176536,35.0960721],[57.1526455,35.0755155],[57.0006939,34.9980118],[56.879855
2,34.9799613],[56.8337425,34.954405],[56.820686,34.9374544],[56.8515221,34.9191232],[56.7901295,34.8374511],[56.7398501,
34.7827327],[56.6723442,34.7543938],[56.4384468,34.682448],[56.2279736,34.7104172],[56.4884468,35.0285743],[56.6265119,3
5.0649624],[56.6909577,35.0624638],[56.8437427,35.1977425],[56.9370816,35.221075],[57.0002296,35.2152486],[57.0520871,35
.3149691],[56.9912513,35.441914],[57.0001414,35.4874687],[57.0476409,35.5355282],[57.0348643,35.5641375],[56.7217953,35.
8599842],[56.7312388,36.0899851],[56.800408,36.2386072],[56.7331824,36.313053],[56.6984597,36.3883299],[56.8167982,36.46
19424],[56.8640245,36.5208313],[56.8615248,36.5680528],[56.7692958,36.6158298],[56.7584628,36.7038922],[56.6020678,36.66
91693],[56.5351185,36.6783365],[56.6587373,36.7727843],[56.7212399,36.7988951],[57.0295866,36.8716763],[57.4898883,36.76
91637],[57.5887801,36.7341645],[57.7521249,36.6405581],[57.9360229,36.5847219],[58.0824144,36.5999959],[58.1057475,36.64
55556],[58.0879746,36.722503],[58.1107479,36.7727824],[58.0988083,36.8688929],[58.1343611,36.8647246],[58.2588132,36.910
8352],[58.3010527,36.9644639],[58.2927063,37.002787],[58.2496468,37.0200059],[58.2440936,37.046954],[58.1590148,37.07513
05],[58.2429806,37.1811205],[58.3049269,37.1680631],[58.3243732,37.1994596],[58.382706,37.2077922],[58.4204854,37.243901
7],[58.3168736,37.3516793],[58.3549337,37.4083545],[58.3709134,37.5846745],[58.3112048,37.662222],[58.3596512,37.6611066
],[58.3884341,37.6269846],[58.474167,37.640556],[58.55,37.705833],[58.712778,37.648611],[58.804444,37.666944],[58.822778
,37.703611],[58.876389,37.669167],[59.060278,37.63],[59.2292497,37.5120499],[59.3534794,37.5284162],[59.392131,37.479137
4],[59.3814207,37.4497464],[59.4113447,37.4357739],[59.377877,37.4075897],[59.3968977,37.3173029],[59.4334955,37.3054859
],[59.4834259,37.248484],[59.491833,37.2300429],[59.4747378,37.2147753],[59.5517307,37.1775677],[59.5525408,37.136204],[
59.6433988,37.1192367],[59.6534908,37.1422099],[59.6789985,37.1412196],[59.7474053,37.1077803],[59.7718478,37.1253495],[
59.8995292,37.0514459],[59.9814679,37.0471137],[60.0430687,37.0207635],[60.0890045,36.9717244],[60.1042036,36.9244661],[
60.266905,36.7572095],[60.3455423,36.6293939],[60.6752205,36.6222116],[61.1461942,36.646493],[61.1860031,36.5643208],[61
.1822189,36.525769],[61.1568767,36.5074018],[61.1757576,36.4641629],[61.166353,36.4135861],[61.1425,36.392778],[61.16044
72,36.3305686],[61.1491692,36.3174795],[61.2193283,36.1923075],[61.2251307,36.1405553],[61.2106077,36.1277446],[61.23097
59,36.1175896],[61.164722,36.035278],[61.17,35.995278],[61.1171678,35.9621307],[61.1836284,35.9430414],[61.245,35.897222
],[61.261944,35.813333],[61.246389,35.7175],[61.2166545,35.675801],[61.2737591,35.6094121],[61.2825792,35.5379033],[61.2
2207,35.442909],[61.227161,35.421655],[61.187459,35.399592],[61.200429,35.373588],[61.17575,35.343314],[61.190296,35.292
865],[61.157867,35.275352],[61.108955,35.282812],[61.091775,35.263737],[61.09836,35.2185],[61.117854,35.209644],[61.0871
17,35.164807],[61.13257,35.135873],[61.141486,35.104899],[61.126077,35.095384],[61.145771,35.080611],[61.117421,35.07397
5],[61.125996,35.058858],[61.1117,35.060622],[61.099702,35.024205],[61.121625,35.003515],[61.062264,34.917265],[61.07385
7,34.908623],[61.055943,34.904862],[61.080891,34.876279],[61.075061,34.844264],[61.002802,34.7092165],[61.000798,34.6429
76],[60.984492,34.619758],[60.922214,34.623018],[60.897272,34.56726],[60.84865,34.542077],[60.739083,34.518086],[60.8092
74,34.471653],[60.849631,34.368448],[60.918373,34.304756],[60.6720322,34.3027538],[60.66949,34.272504],[60.585931,34.212
66],[60.5374215,34.150697],[60.51788,34.0724107],[60.533076,34.0002495]]]}},{"type":"Feature","properties":{"province_na
me":"  ","name_fa":" "},"geometry":{"type":"Polygon","coordinates":[[[59.9397084,30.7612473],
[59.8774826,30.7098487],[59.4635747,30.5167946],[59.1938393,30.8168007],[59.0785612,30.9079166],[59.0585552,31.008478],[
58.780493,31.1554155],[58.3899192,31.4765441],[58.0782371,31.6587712],[57.5334915,31.8234911],[57.1026374,31.8996052],[5
6.9395766,31.9540503],[56.7734587,31.9557208],[56.6048378,31.922106],[56.5967812,31.9996114],[56.6534506,32.0873839],[56
.5437256,32.2315637],[56.3623284,32.4057319],[56.221487,32.5937882],[55.9720338,32.7396312],[55.8764718,32.7532385],[55.
8075795,32.7874056],[55.6861878,32.931025],[55.6672981,32.9987977],[55.5117337,33.2515794],[55.386452,33.3649236],[55.49
7844,33.5290919],[55.4786782,34.2518854],[55.9195327,34.2457751],[56.2279736,34.7104172],[56.4323336,34.6818977],[56.611
5081,34.7324514],[56.7398501,34.7827327],[56.8495757,34.9149554],[56.8442988,34.9352351],[56.8198526,34.9391233],[56.864
5754,34.9744045],[57.0006939,34.9980118],[57.1526455,35.0755155],[57.3176536,35.0960721],[57.5462775,35.0638518],[57.572
9435,35.0001039],[57.7043352,34.9260685],[57.7860073,34.8238449],[57.7021148,34.774395],[57.5566901,34.598],[57.6404487,
34.5205058],[57.7660067,34.3471594],[57.9160113,34.32161],[58.0351832,34.2391031],[58.0710226,34.2349424],[58.1890811,34
.2416029],[58.2640871,34.3213297],[58.3201997,34.3146603],[58.3707267,34.2893055],[58.4652041,34.1274391],[58.6363217,34
.0216001],[58.7057745,34.099937],[58.7857734,34.0818761],[58.8638325,34.1143781],[58.9796708,34.0946565],[59.0441236,34.
1238187],[59.162462,34.1190981],[59.2594074,34.1499297],[59.347193,34.1079869],[59.5360906,34.1040964],[59.610536,34.015
4875],[59.9912849,34.004841],[60.0880562,33.9277046],[60.1441686,33.856312],[60.1830615,33.8668734],[60.3344603,33.98382
16],[60.533076,34.0002495],[60.5822135,33.8054437],[60.5468937,33.7314095],[60.5514636,33.6400296],[60.5812773,33.597023
3],[60.7034182,33.54552],[60.9027952,33.5399665],[60.9459035,33.5134944],[60.9287078,33.4972033],[60.8824864,33.5052436]
,[60.8509231,33.4820012],[60.8664836,33.421487],[60.6340548,33.2281412],[60.5833775,33.1299045],[60.6294139,33.0212334],
[60.7095814,32.6958555],[60.814771,32.4812948],[60.882921,32.197736],[60.8159668,32.0265393],[60.832519,31.979859],[60.8
134835,31.7087013],[60.8569712,31.4632045],[60.8355847,31.4140384],[60.7430788,31.3290335],[60.6583536,31.2859724],[60.3
877834,31.2245871],[60.2780581,31.1518107],[60.2486117,31.1098626],[60.299171,31.0226379],[60.2008322,30.9401374],[59.97
74885,30.9198562],[59.9519285,30.8823533],[59.9397084,30.7612473]]]}},{"type":"Feature","properties":{"province_name":"
   ","name_fa":"  "},"geometry":{"type":"Polygon","coordinates":[[[61.5497327,24.84651
03],[61.3546759,24.8662768],[60.5765756,25.0727683],[60.4193982,25.0794386],[59.5677381,25.1954933],[59.2187761,25.19940
33],[59.2104926,25.5578014],[59.2357725,25.6367001],[59.2113266,25.6914167],[59.218833,25.7405878],[59.0835491,25.850866
2],[59.072156,25.8944817],[58.9977108,25.937814],[59.0190967,25.9733706],[59.0804892,25.996152],[59.0827163,26.0303127],
[59.0218772,26.1308698],[59.0288239,26.166987],[58.9829846,26.2172627],[58.9760453,26.28671],[58.9432658,26.3355961],[58
.8796535,26.353383],[58.8843736,26.4236558],[58.8438142,26.4831065],[58.9224331,26.5150435],[59.0003551,26.5003229],[59.
0060451,26.5281025],[59.0374382,26.5475481],[58.9996588,26.596439],[59.0177119,26.6561592],[58.9904926,26.75922],[58.905
7608,26.7878299],[58.8507615,26.8311605],[58.8643748,26.9086636],[58.9129876,26.9999296],[58.8485422,27.1017277],[58.831
0364,27.2536735],[58.9010426,27.5764568],[58.8904901,27.8981235],[58.9324362,27.9731322],[58.9338231,28.0298011],[59.014
5546,28.1070656],[59.1483843,28.1273763],[59.1614392,28.2507186],[59.1261603,28.2984927],[59.1225478,28.3632191],[59.061
9893,28.4162781],[59.2305063,28.4764732],[59.536348,28.4731397],[59.5652411,28.5098105],[59.546075,28.6236971],[59.56274
15,28.6903676],[59.5505155,28.8159292],[59.4969032,28.96093],[59.5055168,28.9998199],[59.5707959,29.0820391],[59.4944042
,29.2445422],[59.4635717,29.3742691],[59.4335736,29.8717785],[59.4494066,29.9934475],[59.4249612,30.2526259],[59.4635747
,30.5167946],[59.8774826,30.7098487],[59.9422086,30.7656877],[59.9519285,30.8823533],[59.9774885,30.9198562],[60.1655526

,30.9315265],[60.2219452,30.9512486],[60.299171,31.0226379],[60.2486117,31.1098626],[60.2755585,31.1498609],[60.3877834,
31.2245871],[60.6583536,31.2859724],[60.7430788,31.3290335],[60.8372511,31.4162593],[60.856057,31.4865192],[61.7066673,3
1.375896],[61.7783849,31.3022694],[61.7716308,31.2062588],[61.8045461,31.1657792],[61.8390347,31.036451],[61.8238446,31.
0008681],[61.8347019,30.9740985],[61.785528,30.9332587],[61.8016237,30.8325765],[60.874444,29.855556],[61.1625238,29.533
3387],[61.308947,29.395202],[61.360123,29.378458],[61.372156,29.321058],[61.352909,29.275983],[61.430218,29.199095],[61.
412681,29.175421],[61.420823,29.135652],[61.474371,29.123403],[61.471443,29.090872],[61.507259,29.061686],[61.478861,29.
023639],[61.533361,29.010222],[61.6455716,28.8029274],[61.910018,28.564377],[62.043906,28.510134],[62.389486,28.432248],
[62.488771,28.373405],[62.512278,28.322855],[62.597191,28.24842],[62.7929605,28.2789044],[62.7610215,28.0259231],[62.828
9545,27.7644629],[62.8484229,27.4629391],[62.791328,27.338783],[62.824803,27.299191],[62.80882,27.264235],[62.775572,27.
252896],[62.820731,27.218458],[62.873027,27.228859],[62.936974,27.20144],[63.040552,27.23729],[63.198716,27.259436],[63.
224699,27.225621],[63.281777,27.213732],[63.3332704,27.1184003],[63.3071253,27.1296461],[63.2510944,27.0921506],[63.2463
34,26.849903],[63.185979,26.836726],[63.208945,26.77333],[63.191485,26.770481],[63.19692,26.647126],[63.108061,26.652392
],[63.048857,26.627541],[62.989971,26.649943],[62.824409,26.637995],[62.7947,26.651003],[62.7535368,26.6450164],[62.7381
03,26.613237],[62.651571,26.610976],[62.604098,26.576273],[62.445165,26.566895],[62.4211762,26.5331578],[62.370225,26.53
9378],[62.303304,26.508287],[62.306943,26.462772],[62.284882,26.439747],[62.257767,26.446225],[62.259498,26.408339],[62.
284695,26.380344],[62.250133,26.346581],[62.271944,26.328003],[62.228244,26.329538],[62.215011,26.267929],[62.125388,26.
273986],[62.098288,26.285776],[62.085181,26.318861],[62.033364,26.334491],[62.021768,26.302815],[61.961143,26.260217],[6
1.896325,26.261399],[61.832838,26.059377],[61.828691,26.031244],[61.846411,26.018672],[61.818359,25.967194],[61.831706,2
5.911402],[61.85684,25.914788],[61.890722,25.883199],[61.84219,25.877674],[61.820408,25.849211],[61.851539,25.816431],[6
1.836235,25.798511],[61.840067,25.74484],[61.798234,25.717887],[61.736329,25.74172],[61.672325,25.647835],[61.6505818,25
.3058125],[61.5755479,25.0453876],[61.5497327,24.8465103]]]}},{"type":"Feature","properties":{"province_name":" 
","name_fa":""},"geometry":{"type":"Polygon","coordinates":[[[51.9649046,34.8652387],[51.7332272,35.0016298],[51.
5993289,35.0177316],[51.5815524,35.0488522],[51.48877,35.1069061],[51.1451407,35.1805155],[51.0123591,35.1380151],[50.86
92974,35.1596891],[50.8490093,35.1730286],[50.890687,35.2274604],[50.9615226,35.417188],[50.9920724,35.4371339],[50.8956
036,35.4850921],[50.7676246,35.4869185],[50.6259494,35.5474747],[50.353419,35.5706023],[50.3722676,35.6189298],[50.39702
14,35.6383536],[50.7015885,35.6741458],[50.7935226,35.7036144],[50.9976279,35.70036],[51.0298331,35.7422542],[51.0882389
,35.7222773],[51.0941937,35.7577693],[51.1082599,35.7517637],[51.0951403,35.8122012],[51.2432017,35.9399772],[51.4130707
,35.8931068],[51.4065431,35.977209],[51.4568225,36.0608238],[51.4592965,36.1400995],[51.760449,36.0066529],[51.8782311,3
5.8599847],[52.0726856,35.7633173],[52.2374138,35.7696997],[52.2921399,35.8155375],[52.3782555,35.8485917],[52.4357581,3
5.9122089],[52.5679864,35.943313],[52.7049383,35.9280361],[52.9368923,35.8338723],[53.0174514,35.8535946],[53.0471743,35
.8199818],[53.1532932,35.8113644],[53.1527365,35.7919297],[52.999675,35.6813629],[52.8771663,35.6260885],[52.801054,35.5
494151],[52.6977153,35.5519216],[52.555207,35.4119141],[52.3829791,35.3380212],[52.2576937,35.4405264],[52.0351831,35.49
35832],[51.9857369,35.575526],[51.9296242,35.5585843],[51.9124013,35.4144115],[51.9439291,35.3613021],[51.8729552,35.278
3007],[51.954901,35.1507968],[52.0346303,35.0905171],[52.0446302,35.0496826],[52.0015707,34.9185647],[51.9649046,34.8652
387]]]}},{"type":"Feature","properties":{"province_name":" ","name_fa":""},"geometry":{"type":"Polygon","coordi
nates":[[[50.4676139,34.1904934],[50.4284443,34.211324],[50.4245543,34.2774425],[50.3601083,34.3488291],[50.3317721,34.4
068837],[50.3351052,34.4421688],[50.1464877,34.4752237],[50.1570406,34.5091175],[50.0862046,34.5835621],[50.1081511,34.6
238331],[50.1220405,34.7555112],[50.1689866,34.8216255],[50.2534357,34.8141193],[50.3412177,34.7599505],[50.4284433,34.7
541222],[50.451223,34.8269037],[50.4892791,34.8602302],[50.705123,34.8682868],[50.6923434,34.9518966],[50.6498404,34.999
6803],[50.6537302,35.0182898],[50.8490093,35.1730286],[50.9165201,35.1432915],[51.0123591,35.1380151],[51.1034746,35.178
017],[51.1704203,35.1782967],[51.48877,35.1069061],[51.5815524,35.0488522],[51.5993289,35.0177316],[51.7332272,35.001629
8],[51.9649046,34.8652387],[51.9143454,34.6969028],[51.8403823,34.5680611],[51.8341678,34.5059559],[51.3259864,34.441059
9],[51.1273654,34.4327213],[51.0115269,34.3721675],[51.0140271,34.287443],[50.9948608,34.234664],[50.9081887,34.1518826]
,[50.8848555,34.1913332],[50.815125,34.2047764],[50.7962399,34.2360537],[50.727624,34.2152142],[50.6509551,34.2557736],[
50.5956723,34.2168837],[50.4676139,34.1904934]]]}},{"type":"Feature","properties":{"province_name":" ","name_f
a":""},"geometry":{"type":"Polygon","coordinates":[[[50.2948234,35.5610801],[50.2295442,35.541361],[50.1631517,35.6
105336],[50.2437107,35.6477508],[50.250403,35.806938],[50.2970462,35.8224764],[50.3731618,35.8983085],[50.4259411,36.001
6496],[50.5473363,36.0183135],[50.5776122,36.0824867],[50.6781745,36.1152612],[50.4320636,36.2452451],[50.409664,36.3022
661],[50.4348301,36.3288809],[50.4959428,36.3422142],[50.7498434,36.3180525],[50.9506879,36.2622126],[51.2015319,36.1624
881],[51.2679243,36.1841587],[51.315984,36.1544326],[51.4592965,36.1400995],[51.4568225,36.0608238],[51.4065431,35.97720
9],[51.4130707,35.8931068],[51.2432017,35.9399772],[51.0951403,35.8122012],[51.1082599,35.7517637],[51.0941937,35.757769
3],[51.0882389,35.7222773],[51.0298331,35.7422542],[50.9976279,35.70036],[50.8353366,35.7086742],[50.7015885,35.6741458]
,[50.3970214,35.6383536],[50.353419,35.5706023],[50.2948234,35.5610801]]]}},{"type":"Feature","properties":{"province_na
me":"  ","name_fa":" "},"geometry":{"type":"Polygon","coordinates":[[[46.9310485,36.75527
25],[46.8732689,36.7866601],[46.8988245,36.8947151],[46.8427122,36.927501],[46.8307648,36.9675048],[46.8627115,36.999729
7],[46.7893754,37.0541661],[46.7063165,37.0722294],[46.6421472,37.0411149],[46.4607487,37.0202777],[46.4960282,37.091947
9],[46.4476919,37.1013887],[46.4124124,37.0563881],[46.2862944,36.9716711],[46.1987926,36.9444408],[46.1774022,36.955269
9],[46.175456,36.9955512],[46.0046132,37.1505605],[45.7523794,37.1822271],[45.7808896,37.228471],[45.5946336,37.4257989]
,[45.3563683,37.7386848],[45.292854,37.8604891],[45.2801507,37.942032],[45.3749078,38.0226729],[45.3484723,38.1245645],[
45.30281,38.1583172],[45.1280592,38.1915139],[45.0820642,38.3325346],[45.2104025,38.4300311],[45.2698514,38.4417052],[45
.339577,38.4864231],[45.2929078,38.5339291],[45.2334572,38.66504],[45.2756837,38.7319877],[45.2654031,38.8550443],[45.32
9295,38.8922705],[45.3926311,38.9714417],[45.4529047,38.9929965],[45.5415028,38.9648285],[45.580174,38.9789688],[45.6145
737,38.9416943],[45.6924464,38.9514945],[45.736821,38.9275348],[45.7979968,38.9249278],[45.8152735,38.9052549],[45.84936
14,38.9095575],[45.9087076,38.8739169],[45.9445223,38.8965928],[46.0120046,38.8718894],[46.0654204,38.8874386],[46.14760
06,38.8418111],[46.1841363,38.8414876],[46.3461404,38.9168198],[46.4210438,38.8830219],[46.4534998,38.8990073],[46.52259
97,38.8889067],[46.5339832,38.867172],[46.6549773,38.9540911],[46.6969383,39.0190302],[46.7530928,39.025914],[46.7683432
,39.0704193],[46.8342366,39.1144444],[46.8390194,39.1374974],[46.9255441,39.1647287],[46.9624954,39.1403575],[47.0191103
,39.1670014],[47.0539374,39.1939118],[47.0580694,39.2398185],[47.0983303,39.2767338],[47.315114,39.3691936],[47.363399,3
9.4217256],[47.439111,39.3372671],[47.4307925,39.3186376],[47.5049349,39.2954356],[47.4810658,39.2725645],[47.518569,39.
2197857],[47.5194023,39.1508961],[47.4974563,39.1283969],[47.5274594,39.0806154],[47.5052366,39.0353314],[47.5230132,39.
0142262],[47.50218,39.0000537],[47.5630161,38.9775567],[47.5266267,38.9586645],[47.5363466,38.9500526],[47.5116235,38.91
58902],[47.5980199,38.8189437],[47.4696776,38.7914396],[47.4313449,38.7564406],[47.4357886,38.7003296],[47.5257943,38.66
97677],[47.564954,38.6422788],[47.5688509,38.6117084],[47.4985682,38.5811588],[47.4641225,38.4780964],[47.345784,38.3569
797],[47.2907813,38.3319841],[47.2871719,38.302263],[47.3985677,38.2378125],[47.4688466,38.2494817],[47.4827366,38.18197
93],[47.6171887,38.2183641],[47.7246942,38.2122555],[47.7874733,38.2514228],[47.8521997,38.1466985],[47.8622001,38.00669
99],[47.9097032,37.9908649],[47.9377595,37.9466916],[47.887757,37.8978047],[47.8930368,37.8683574],[47.977486,37.8758633
],[47.999403,37.8949567],[48.1511045,37.8103041],[48.1352716,37.7522446],[48.0666557,37.7294704],[48.0255429,37.654462],
[48.0216532,37.6122422],[48.079156,37.5783566],[48.0530467,37.5333525],[48.0608231,37.5147348],[48.1552721,37.4783524],[
48.1494391,37.416124],[48.2255553,37.3661248],[48.2441653,37.3269628],[48.2600016,37.329455],[48.3383375,37.2483443],[48
.1502733,37.2211248],[48.0997139,37.1558395],[48.0411012,37.1494499],[47.9993331,37.112217],[47.9724852,37.1552812],[47.
8719263,37.1747277],[47.7788675,37.1322247],[47.7660877,37.0763991],[47.663029,37.0994478],[47.59886,37.0375081],[47.524
1339,37.0672274],[47.4924644,37.0000012],[47.3027333,36.8972278],[47.1982853,36.7994371],[47.1741153,36.791667],[47.1405
026,36.8322183],[47.1024463,36.8324973],[47.0218869,36.7908292],[47.0029977,36.7466648],[46.9310485,36.7552725]]]}},{"ty
pe":"Feature","properties":{"province_name":" ","name_fa":""},"geometry":{"type":"Polygon","coordinates":[[[5
4.4816862,29.6409672],[54.2427864,29.5962233],[54.1030585,29.7928965],[54.0980585,29.9384533],[53.9055514,30.106788],[53

.8644386,30.2026288],[53.9255511,30.3340175],[53.8986047,30.4456825],[53.9308275,30.5401367],[53.8794384,30.630138],[53.
734987,30.6890253],[53.4585844,30.7373638],[53.3774721,30.8254161],[52.9693979,31.0145934],[52.9118953,31.1212617],[52.8
335564,31.1790434],[52.8505028,31.2143124],[52.9457847,31.240988],[52.9782876,31.3226504],[52.9507846,31.3898795],[52.80
10566,31.4948743],[52.9977306,31.4962647],[53.1355152,31.5423805],[53.2035743,31.5901582],[53.1402385,31.6804336],[53.05
30131,31.7459903],[53.009677,31.8546066],[53.0424564,31.9898882],[53.058846,32.3321159],[53.051066,32.4146177],[53.01078
65,32.5090657],[53.1866274,32.6176809],[53.4624737,32.6951803],[53.842492,32.6860155],[53.941384,32.7988012],[54.2241771
,32.8988003],[54.283623,32.9601897],[54.3075126,33.0301923],[54.3483488,33.0529635],[54.5500228,33.0907497],[54.7447535,
33.0657485],[54.790313,33.1179718],[54.8972616,33.1801987],[54.9917104,33.1257457],[55.2225541,33.324088],[55.386452,33.
3649236],[55.5117337,33.2515794],[55.6672981,32.9987977],[55.6861878,32.931025],[55.8075795,32.7874056],[55.8764718,32.7
532385],[55.9720338,32.7396312],[56.221487,32.5937882],[56.3623284,32.4057319],[56.5912282,32.1740559],[56.6545639,32.08
12801],[56.5967812,31.9996114],[56.6065043,31.8682121],[56.5792811,31.7115449],[56.538725,31.7076627],[56.2556554,31.553
4935],[56.1605022,31.5526083],[56.1211953,31.5906712],[56.0350885,31.5704307],[56.0128652,31.4648737],[55.9639761,31.430
7118],[55.9267531,31.3673728],[55.7400756,31.2745965],[55.6009042,31.2437592],[55.399507,31.1518177],[54.9433733,31.0276
458],[54.7116966,31.0659818],[54.5333558,31.0143137],[54.5594686,30.5826324],[54.4800197,30.4784661],[54.3366818,30.3851
253],[54.547802,30.1781876],[54.541132,29.8917816],[54.5619684,29.6270564],[54.4816862,29.6409672]]]}},{"type":"Feature"
,"properties":{"province_name":" ","name_fa":""},"geometry":{"type":"Polygon","coordinates":[[[59.218
7761,25.1994033],[59.0569858,25.2037298],[58.031375,25.3618275],[57.6780601,25.4491451],[57.1858621,25.6190402],[57.1125
809,25.685279],[57.0835873,25.7454101],[57.0712282,25.8426445],[57.0020189,25.9007986],[56.9624421,25.9743274],[56.95141
65,26.1048542],[56.8713617,26.2448854],[56.8160077,26.4318077],[56.8296427,26.5188522],[56.8591859,26.5687237],[56.84520
11,26.6470807],[56.8084558,26.7407944],[56.6707157,26.9030693],[56.5868216,26.7419718],[56.5462498,26.7026737],[56.24173
36,26.5902874],[56.1322549,26.5037413],[55.8933406,26.4122357],[55.4229986,26.0700522],[55.2766237,25.8867867],[55.26618
47,25.7944904],[55.2077397,25.7132112],[55.1285553,25.6699815],[55.0008802,25.6543418],[54.8669759,25.7069237],[54.65049
56,25.7147905],[54.5300633,25.6925179],[54.3932537,25.7216287],[54.2936202,25.8178637],[54.2696951,25.9814492],[54.22354
47,26.0576023],[53.9642391,26.2946269],[53.849842,26.3222684],[53.1282214,26.6061774],[52.482398,26.989407],[52.7379214,
27.2743065],[52.8165666,27.3237282],[52.8852276,27.2928411],[52.9457867,27.3292368],[53.0496784,27.2750621],[53.1307937,
27.2720136],[53.3535802,27.1911741],[53.4096961,27.1139499],[53.496088,27.1011746],[53.5419239,27.1578432],[53.6322058,2
7.0983966],[53.7933232,27.045617],[53.9333276,27.1236778],[54.0349994,27.230064],[54.015833,27.274235],[53.9963867,27.27
31199],[53.9708304,27.3070144],[53.9686071,27.3500664],[54.1094482,27.408124],[54.3530677,27.4586846],[54.6289134,27.467
8509],[55.1256022,27.430071],[55.2567201,27.4956291],[55.437004,27.642573],[55.4714501,27.7186889],[55.5672887,27.781466
5],[55.5800652,27.8086906],[55.5006199,27.9234117],[55.386725,27.998693],[55.4078383,28.4184168],[55.4511744,28.5523166]
,[55.3508892,28.6603707],[55.2539408,28.7217641],[55.247831,28.7470381],[55.5189535,28.6937067],[55.8156322,28.8195388],
[56.0511988,28.880375],[56.0603652,28.7298187],[56.0364752,28.3762016],[56.0557361,28.2946235],[56.1042574,28.2348024],[
56.255095,28.1611992],[56.4445487,28.1306398],[56.6520588,28.1431368],[56.7490074,28.2653651],[56.992627,28.241195],[57.
0081829,27.9739722],[57.2040265,27.8947957],[57.416533,27.890628],[57.4251464,27.8100748],[57.4751451,27.7925702],[57.32
56941,27.7064581],[57.2230512,27.5768406],[57.2290414,27.5600461],[57.2608172,27.5655853],[57.3015782,27.5980461],[57.35
87125,27.574488],[57.3090081,27.4685003],[57.3251405,27.437571],[57.316254,27.3606232],[57.3868129,27.2661754],[57.54403
68,27.1845091],[57.5982091,27.1011722],[57.748769,27.0001759],[57.7984922,26.9431154],[57.9918356,26.9156125],[58.191845
7,26.7792228],[58.4354681,26.7322748],[58.6451978,26.5586596],[58.8438142,26.4831065],[58.8843736,26.4236558],[58.879653
5,26.353383],[58.9432658,26.3355961],[58.9760453,26.28671],[58.9829846,26.2172627],[59.0288239,26.166987],[59.0218772,26
.1308698],[59.0827163,26.0303127],[59.0804892,25.996152],[59.0190967,25.9733706],[58.9977108,25.937814],[59.072156,25.89
44817],[59.0835491,25.8508662],[59.218833,25.7405878],[59.2113266,25.6914167],[59.2357725,25.6367001],[59.2104926,25.557
8014],[59.2187761,25.1994033]]]}},{"type":"Feature","properties":{"province_name":" ","name_fa":""},"
geometry":{"type":"Polygon","coordinates":[[[49.5801433,29.6674426],[49.4643006,29.7895783],[48.8544653,29.7477043],[48.
826035,29.8117841],[48.7164401,29.8544406],[48.6150246,29.9323151],[48.4629249,29.9910509],[48.438333,30.0725],[48.38274
99,30.1231946],[48.4159566,30.1705652],[48.408056,30.211389],[48.2727326,30.3360874],[48.2027331,30.3205769],[48.182222,
30.399444],[48.1511605,30.4351201],[48.0244151,30.4773465],[48.0321895,30.9953741],[47.6873876,31.0029569],[47.682971,31
.394609],[47.865855,31.783613],[47.852568,31.818223],[47.805337,31.842578],[47.80986,31.881373],[47.731711,31.939258],[4
7.705397,31.994321],[47.712418,32.018895],[47.690236,32.013243],[47.664111,32.048542],[47.8100625,32.116073],[47.9850235
,32.2638935],[47.9619751,32.2943871],[47.9717102,32.3274573],[48.0356255,32.3553508],[48.0160638,32.5233567],[47.9805985
,32.5363511],[47.9425773,32.5170105],[47.9558342,32.5357321],[47.9328002,32.5349499],[47.944046,32.561572],[47.9006195,3
2.5683061],[47.9328576,32.5824091],[47.9152184,32.6027823],[47.9883271,32.6114121],[47.9546661,32.6353339],[47.9691466,3
2.6582799],[48.0881156,32.6893842],[48.0639953,32.7087511],[48.0860481,32.7196815],[48.0599975,32.7403727],[48.0682412,3
2.7888861],[48.0490266,32.8057852],[48.1288223,32.8704693],[48.1186829,32.8990325],[48.1327477,32.9171759],[48.1796875,3
2.9009407],[48.2745972,32.9963338],[48.389679,32.9654538],[48.5045663,32.9616899],[48.5471992,32.9836302],[48.632473,32.
9747246],[48.7093164,32.936459],[48.718581,32.8960203],[48.7686882,32.922986],[48.7648849,32.9683579],[48.8307382,32.948
5216],[48.8538629,32.9108387],[48.8998756,32.8849407],[49.0061035,32.915383],[49.0138666,32.8994067],[49.0553438,32.9051
092],[49.1370774,32.8698313],[49.1719742,32.8839216],[49.2179907,32.8521658],[49.3692588,32.8435754],[49.4283178,32.7793
093],[49.5043142,32.7382883],[49.5157779,32.7248254],[49.5000772,32.7030932],[49.5868493,32.6092272],[49.9078903,32.3202
75],[49.9368208,32.1860741],[50.1182176,32.0164292],[50.2396202,31.9401716],[50.2903518,31.8704122],[50.2831,31.8500772]
,[50.4470368,31.6452259],[50.4575423,31.6141558],[50.4269791,31.5934585],[50.3923798,31.6013915],[50.3584136,31.5550185]
,[50.3751105,31.5412341],[50.2540909,31.4483382],[50.2479222,31.4182174],[50.2998317,31.3584786],[50.2467612,31.306489],
[50.1527063,31.2518317],[50.099861,31.2575942],[49.95467,31.2114047],[49.9899942,31.1256725],[49.9475175,31.0748626],[49
.97143,31.0129259],[49.8862115,30.9642596],[49.9236754,30.9277065],[49.9511414,30.9293713],[49.9555053,30.877364],[50.03
33405,30.8713077],[50.0697479,30.8299317],[50.2104225,30.9322635],[50.2434539,30.8325063],[50.2315138,30.7905283],[50.25
41769,30.7555763],[50.3354417,30.7087156],[50.392841,30.7313077],[50.4237277,30.6651337],[50.5339013,30.5996434],[50.549
5662,30.5630552],[50.5060119,30.5305816],[50.3864555,30.524084],[50.4526215,30.4322936],[50.5207594,30.3904245],[50.5205
84,30.1655169],[50.4165763,30.1821897],[50.2000071,30.2949624],[50.1390342,30.1759444],[49.5801433,29.6674426]]]}},{"typ
e":"Feature","properties":{"province_name":" ","name_fa":""},"geometry":{"type":"Polygon","coordinates":[
[[58.8438142,26.4831065],[58.6451978,26.5586596],[58.4354681,26.7322748],[58.1918457,26.7792228],[57.9918356,26.9156125]
,[57.7984922,26.9431154],[57.748769,27.0001759],[57.5982091,27.1011722],[57.5440368,27.1845091],[57.3868129,27.2661754],
[57.316254,27.3606232],[57.3251405,27.437571],[57.3090081,27.4685003],[57.3587125,27.574488],[57.3015782,27.5980461],[57
.2608172,27.5655853],[57.2290414,27.5600461],[57.2230512,27.5768406],[57.3256941,27.7064581],[57.4751451,27.7925702],[57
.4251464,27.8100748],[57.416533,27.890628],[57.2040265,27.8947957],[57.0081829,27.9739722],[56.992627,28.241195],[56.749
0074,28.2653651],[56.6520588,28.1431368],[56.4445487,28.1306398],[56.255095,28.1611992],[56.1042574,28.2348024],[56.0557
361,28.2946235],[56.0364752,28.3762016],[56.0548061,28.8793005],[55.8156322,28.8195388],[55.5189535,28.6937067],[55.2478
31,28.7470381],[55.2772774,29.033435],[55.2622777,29.0945466],[55.1653258,29.2523276],[54.983932,29.3948318],[54.8161445
,29.5937251],[54.5614116,29.6264973],[54.541132,29.8917816],[54.5450221,30.1892939],[54.3366818,30.3809655],[54.4800197,
30.4784661],[54.5594686,30.5826324],[54.5333558,31.0143137],[54.7116966,31.0659818],[54.9464299,31.0281963],[55.2106096,
31.0912565],[55.494789,31.185976],[55.6009042,31.2437592],[55.7400756,31.2745965],[55.9384197,31.3768158],[55.9639761,31
.4307118],[56.0128652,31.4648737],[56.0350885,31.5704307],[56.1211953,31.5906712],[56.1605022,31.5526083],[56.2556554,31
.5534935],[56.538725,31.7076627],[56.5790044,31.7112741],[56.6048378,31.922106],[56.8851306,31.960163],[57.3393144,31.84
8772],[57.5334915,31.8234911],[58.0671235,31.6640438],[58.3899192,31.4765441],[58.780493,31.1554155],[59.0680015,31.0000
833],[59.0785612,30.9079166],[59.1938393,30.8168007],[59.4682947,30.4995767],[59.4249612,30.2526259],[59.4494066,29.9934
475],[59.4335736,29.8717785],[59.4635717,29.3742691],[59.4944042,29.2445422],[59.5707959,29.0820391],[59.5055168,28.9998
199],[59.4969032,28.96093],[59.5505155,28.8159292],[59.5627415,28.6903676],[59.546075,28.6236971],[59.5660743,28.5184221

],[59.536348,28.4731397],[59.2305063,28.4764732],[59.0619893,28.4162781],[59.1225478,28.3632191],[59.1261603,28.2984927]
,[59.1614392,28.2507186],[59.1483843,28.1273763],[59.0145546,28.1070656],[58.9338231,28.0298011],[58.9324362,27.9731322]
,[58.8904901,27.8981235],[58.9010426,27.5764568],[58.8310364,27.2536735],[58.8485422,27.1017277],[58.9129876,26.9999296]
,[58.8643748,26.9086636],[58.8507615,26.8311605],[58.9057608,26.7878299],[58.9904926,26.75922],[59.0177119,26.6561592],[
58.9996588,26.596439],[59.0374382,26.5475481],[59.0060451,26.5281025],[59.0003551,26.5003229],[58.9224331,26.5150435],[5
8.8438142,26.4831065]]]}},{"type":"Feature","properties":{"province_name":" ","name_fa":""},"geometry":{"
type":"Polygon","coordinates":[[[47.664111,32.048542],[47.62147,32.103803],[47.565708,32.112076],[47.529201,32.141752],[
47.527892,32.170546],[47.565278,32.193232],[47.56696,32.225089],[47.499849,32.277875],[47.519494,32.304516],[47.46314,32
.314316],[47.435256,32.351867],[47.465348,32.391316],[47.379567,32.473212],[47.283461,32.49637],[47.247204,32.463729],[4
7.168401,32.457281],[46.887238,32.631954],[46.720615,32.78596],[46.622615,32.822218],[46.447421,32.933275],[46.266369,32
.972447],[46.159405,32.955131],[46.096511,32.98168],[46.099162,33.019813],[46.129911,33.020975],[46.164625,33.069428],[4
6.04037,33.094539],[46.0531735,33.1282554],[46.125454,33.11708],[46.212346,33.197072],[46.180584,33.206344],[46.189827,3
3.26397],[46.134,33.292185],[46.080962,33.351755],[46.077601,33.389648],[46.007252,33.50781],[45.939491,33.481894],[45.8
63003,33.493148],[45.961002,33.56133],[45.905254,33.606284],[45.907062,33.638097],[45.814716,33.628415],[45.753165,33.59
2917],[45.77167,33.636936],[45.69252,33.69097],[45.7701754,33.7040816],[45.8510102,33.7949231],[45.8596235,33.8432538],[
45.9215692,33.8379732],[45.9693482,33.8588075],[45.8537902,33.9265889],[45.8446235,33.9490921],[45.8673995,33.9890883],[
45.9193491,33.9688151],[45.9832378,33.9724168],[46.0549102,34.0377041],[46.2782541,33.9507633],[46.2985308,33.9954801],[
46.62077,33.8313134],[46.724106,33.7421437],[46.7627183,33.7713108],[46.8630042,33.7332522],[46.9202271,33.7685308],[46.
9746759,33.7418645],[46.9971753,33.8115904],[47.0521778,33.8332553],[47.0927342,33.8243639],[47.1063476,33.8404771],[47.
1374601,33.8146418],[47.2952454,33.788536],[47.3866369,33.8613118],[47.3180243,33.9604875],[47.3913602,33.9304835],[47.4
213599,33.9524271],[47.4855323,33.9390951],[47.5069223,33.90715],[47.5138657,33.8282556],[47.4574732,33.8052004],[47.411
3605,33.7371443],[47.3038552,33.7238107],[47.2580222,33.7460268],[47.2419094,33.7257514],[47.1788504,33.7227],[47.155793
8,33.7029751],[47.0680114,33.709917],[47.0602357,33.6646442],[47.0224562,33.6282538],[47.038013,33.5846409],[46.9921768,
33.5863019],[46.9424506,33.6204718],[46.8846714,33.6201917],[46.8457816,33.6104778],[46.8643915,33.5776981],[46.8393918,
33.5615833],[46.8638386,33.5199195],[47.0235664,33.4240774],[47.0102334,33.3840821],[47.100236,33.3493591],[47.1063496,3
3.3324128],[47.151352,33.3385251],[47.1799621,33.3018604],[47.2019079,33.3024113],[47.1955179,33.2826838],[47.2252443,33
.27324],[47.2324649,33.2479689],[47.3996957,33.1976884],[47.5922039,33.0451818],[47.8097147,32.9718482],[47.9344431,32.8
999041],[47.9952793,32.8418461],[48.0100024,32.7793454],[47.9394436,32.7623972],[47.9102776,32.7212864],[47.9693907,32.6
587288],[47.9546661,32.6353339],[47.9892081,32.6128352],[47.9152184,32.6027823],[47.9328576,32.5824091],[47.9005089,32.5
676159],[47.944046,32.561572],[47.9328002,32.5349499],[47.9558342,32.5357321],[47.9425773,32.5170105],[47.9805985,32.536
3511],[48.0156975,32.5242384],[48.0354539,32.3539695],[47.9760476,32.3335637],[47.9617768,32.2954034],[47.9850235,32.263
8935],[47.8388139,32.1374699],[47.664111,32.048542]]]}},{"type":"Feature","properties":{"province_name":" ","
name_fa":""},"geometry":{"type":"Polygon","coordinates":[[[49.7317497,32.8082425],[49.6600773,32.7793485],[49.5906
318,32.789073],[49.5775754,32.7401792],[49.5155333,32.7251812],[49.4283178,32.7793093],[49.3671645,32.8445515],[49.21799
07,32.8521658],[49.1719742,32.8839216],[49.1370774,32.8698313],[49.0553438,32.9051092],[49.0138666,32.8994067],[49.00610
35,32.915383],[48.8998756,32.8849407],[48.8538629,32.9108387],[48.8307382,32.9485216],[48.7648849,32.9683579],[48.768688
2,32.922986],[48.718581,32.8960203],[48.7093164,32.936459],[48.632473,32.9747246],[48.5471992,32.9836302],[48.5045663,32
.9616899],[48.389679,32.9654538],[48.2796974,32.9971281],[48.1796875,32.9009407],[48.1280898,32.9126331],[48.1288223,32.
8704693],[48.0488091,32.8054172],[48.0682412,32.7888861],[48.0599975,32.7403727],[48.0860481,32.7196815],[48.0639953,32.
7087511],[48.0897255,32.6917658],[48.064911,32.6745416],[48.0020447,32.6745484],[47.9821206,32.6534494],[47.9102776,32.7
212864],[47.9394436,32.7623972],[47.996946,32.7676794],[48.0125025,32.7904605],[47.9941696,32.8435165],[47.9344431,32.89
99041],[47.7533252,32.9982401],[47.6905427,33.0024024],[47.5922039,33.0451818],[47.3996957,33.1976884],[47.2324649,33.24
79689],[47.2252443,33.27324],[47.1955179,33.2826838],[47.2019079,33.3024113],[47.1799621,33.3018604],[47.151352,33.33852
51],[47.1063496,33.3324128],[47.100236,33.3493591],[47.0102334,33.3840821],[47.0260664,33.4201862],[47.0113434,33.435471
],[46.8616151,33.5221313],[46.8396684,33.5599222],[46.8643915,33.5776981],[46.8457816,33.6104778],[46.9410639,33.6207516
],[46.9921768,33.5863019],[47.0374558,33.584361],[47.0224562,33.6282538],[47.0602357,33.6646442],[47.0680114,33.709917],
[47.1557938,33.7029751],[47.1788504,33.7227],[47.2419094,33.7257514],[47.2580222,33.7460268],[47.3038552,33.7238107],[47
.4080276,33.7352035],[47.4574732,33.8052004],[47.5110891,33.8249246],[47.5069223,33.90715],[47.4799755,33.942146],[47.49
85851,33.9757608],[47.4452492,34.0310376],[47.4266392,34.0843725],[47.4869185,34.1132645],[47.488308,34.1829876],[47.564
9772,34.1821484],[47.6944284,34.2760476],[47.6791485,34.3560528],[47.7002613,34.3782714],[47.8280466,34.3238259],[47.848
3233,34.2785479],[47.9002729,34.2385487],[47.9386057,34.2457689],[48.053891,34.2127187],[48.1772298,34.086044],[48.24056
56,34.0491006],[48.3044582,34.0566015],[48.304735,34.0213183],[48.3522379,34.0068765],[48.4830761,34.0102073],[48.519465
5,34.0507621],[48.5269684,34.1071563],[48.5603017,34.0665938],[48.5858581,34.0635431],[48.6172508,34.0960456],[48.657654
2,34.0760602],[48.7094765,34.0918759],[48.7236428,34.1232677],[48.765589,34.072434],[48.8417048,34.0363209],[48.8517047,
34.0027073],[48.9042073,34.0063179],[48.9161503,34.0285404],[48.948377,34.0027074],[49.0111558,34.0221501],[49.0775724,3
4.01471],[49.0417125,33.9763146],[49.0089329,33.9818748],[48.9686532,33.9596517],[48.9561538,33.9224262],[48.9642103,33.
9049325],[49.0122663,33.9060429],[48.9936567,33.8904809],[49.0061566,33.8671466],[48.9758771,33.8396507],[48.9939334,33.
8299286],[48.9822672,33.7982618],[49.0117136,33.767705],[49.0211569,33.696317],[49.0703263,33.6888153],[49.075606,33.717
9829],[49.1417187,33.7215939],[49.1950546,33.6863149],[49.2156111,33.6129748],[49.2842269,33.6040916],[49.29645,33.65020
49],[49.3514492,33.6529765],[49.3820087,33.6946475],[49.3606191,33.7382587],[49.410065,33.7504818],[49.4311784,33.736318
],[49.4358981,33.6996489],[49.5283801,33.6879626],[49.6189621,33.7424207],[49.633129,33.6968687],[49.5972963,33.6729819]
,[49.6034062,33.6410334],[49.6361858,33.625199],[49.6514656,33.5863075],[49.7123016,33.5685319],[49.7709142,33.5176957],
[49.7964708,33.4465905],[49.9345325,33.3849186],[50.018148,33.3685323],[49.9987051,33.3035274],[49.9375892,33.2471437],[
49.9470359,33.2299169],[49.8895336,33.2196333],[49.8714771,33.191301],[49.8906435,33.1446311],[49.8778636,33.1296341],[4
9.9242565,33.0896361],[49.9148102,33.0657454],[49.8636975,33.0690771],[49.837308,33.0499084],[49.722026,33.0843538],[49.
6689667,33.0501881],[49.6550771,33.0074084],[49.7078563,32.982407],[49.6373006,32.9746328],[49.6823002,32.8990767],[49.7
486925,32.8557365],[49.7317497,32.8082425]]]}},{"type":"Feature","properties":{"province_name":" ","name_fa":"
"},"geometry":{"type":"Polygon","coordinates":[[[49.9478688,33.3874196],[49.8067507,33.4379776],[49.7623042,33.5263
085],[49.7123016,33.5685319],[49.6514656,33.5863075],[49.6361858,33.625199],[49.5956295,33.656597],[49.633129,33.6968687
],[49.6189621,33.7424207],[49.5283801,33.6879626],[49.4358981,33.6996489],[49.4311784,33.736318],[49.410065,33.7504818],
[49.3606191,33.7382587],[49.3820087,33.6946475],[49.3514492,33.6529765],[49.29645,33.6502049],[49.2842269,33.6040916],[4
9.2156111,33.6129748],[49.1950546,33.6863149],[49.1417187,33.7215939],[49.075606,33.7179829],[49.0703263,33.6888153],[49
.0167135,33.6990884],[49.0117136,33.767705],[48.9822672,33.7982618],[48.9939334,33.8299286],[48.9758771,33.8396507],[49.
0061566,33.8671466],[48.9936567,33.8904809],[49.0122663,33.9060429],[48.9594871,33.9079835],[48.9619867,33.9499301],[49.
0089329,33.9818748],[49.0417125,33.9763146],[49.1753304,34.1115983],[49.1383843,34.1193784],[49.093938,34.1627197],[49.1
233842,34.1910418],[49.1217173,34.2488219],[49.0208784,34.3096594],[49.007265,34.3843837],[48.9500427,34.388553],[49.003
655,34.4238294],[49.0036549,34.4657827],[49.0547675,34.5052174],[49.0011545,34.5974473],[49.060047,34.6349478],[49.08115
69,34.5846704],[49.1347728,34.6135541],[49.1031031,34.7535606],[49.1492156,34.7971742],[49.1681052,34.8660652],[49.21171
79,34.8421758],[49.3036666,34.9119035],[49.3897823,34.9174518],[49.4142284,35.0016269],[49.2889433,35.0060648],[49.25977
7,35.0421831],[49.3064462,35.0849574],[49.4111719,35.0341191],[49.4453414,35.0871766],[49.4661739,35.1791241],[49.426171
,35.2221821],[49.3703351,35.234962],[49.3747816,35.2632994],[49.3506119,35.2813548],[49.4070043,35.3638547],[49.395338,3
5.3863542],[49.4308941,35.4188541],[49.5508994,35.4035785],[49.6228485,35.4488555],[49.6822942,35.4471963],[49.6936838,3
5.4810829],[49.6697942,35.5183046],[49.6875739,35.5341379],[49.7928561,35.5133096],[49.8803583,35.5469146],[49.9723072,3
5.5060874],[50.0431466,35.5055284],[50.1942646,35.5244097],[50.353419,35.5706023],[50.6259494,35.5474747],[50.7676246,35
.4869185],[50.8956036,35.4850921],[50.9920724,35.4371339],[50.9615226,35.417188],[50.890687,35.2274604],[50.857074,35.18

16245],[50.654287,35.0193994],[50.6498404,34.9996803],[50.6923434,34.9518966],[50.705123,34.8682868],[50.4892791,34.8602
302],[50.451223,34.8269037],[50.4340001,34.7574514],[50.4092738,34.7519027],[50.3412177,34.7599505],[50.2514887,34.81467
87],[50.1673198,34.8213458],[50.1220405,34.7555112],[50.1081511,34.6238331],[50.0862046,34.5835621],[50.1570406,34.50911
75],[50.1481542,34.4732836],[50.3351052,34.4421688],[50.3317721,34.4068837],[50.4245543,34.2774425],[50.4420545,34.20105
31],[50.5170602,34.1899339],[50.6456749,34.2560534],[50.727624,34.2152142],[50.7962399,34.2360537],[50.815125,34.2047764
],[50.8848555,34.1913332],[50.8973554,34.1571626],[51.0526483,34.0387274],[51.0200362,33.9818351],[51.0487506,33.9366011
],[51.0320842,33.8529864],[51.049584,33.8202096],[51.0093045,33.7729798],[50.8926328,33.7071527],[50.7040117,33.7271481]
,[50.5956733,33.6621504],[50.5742836,33.6307614],[50.4537253,33.6346521],[50.3370535,33.615757],[50.2731613,33.5824265],
[50.2328815,33.6027028],[50.1917691,33.5310397],[49.9837016,33.4924176],[49.9720351,33.4676986],[49.9903684,33.4199214],
[49.959812,33.4157504],[49.9478688,33.3874196]]]}},{"type":"Feature","properties":{"province_name":"   
","name_fa":"  "},"geometry":{"type":"Polygon","coordinates":[[[51.06952,31.1878167],[51.0309765,31.
1818113],[50.9694423,31.2265568],[50.963202,31.2604226],[50.9245891,31.2984821],[50.8923662,31.3087554],[50.8570867,31.2
904206],[50.7892982,31.3143162],[50.7198524,31.3832062],[50.6395699,31.42765],[50.5748441,31.4087636],[50.5003954,31.452
6482],[50.476229,31.4276498],[50.4009467,31.4151461],[50.3306676,31.4448749],[50.2932415,31.4815706],[50.3756484,31.5418
299],[50.3584136,31.5550185],[50.3923798,31.6013915],[50.4269791,31.5934585],[50.4575423,31.6141558],[50.4464036,31.6465
11],[50.2831,31.8500772],[50.2903518,31.8704122],[50.2396202,31.9401716],[50.1182176,32.0164292],[49.9368208,32.1860741]
,[49.9078903,32.320275],[49.5868493,32.6092272],[49.5015438,32.7165475],[49.5775754,32.7401792],[49.5906318,32.789073],[
49.6600773,32.7793485],[49.7298032,32.8090731],[49.767306,32.7640711],[49.9823168,32.6346172],[50.0445391,32.6274027],[5
0.1537111,32.6637915],[50.2559398,32.5643506],[50.3220524,32.5368379],[50.4912268,32.5912856],[50.5176162,32.631566],[50
.4581705,32.6607308],[50.5270627,32.7179593],[50.5498848,32.7138973],[50.548673,32.6799061],[50.5622097,32.6883087],[50.
565016,32.6723313],[50.6518463,32.7105145],[50.8523551,32.7121267],[50.887358,32.6962892],[50.9170809,32.664903],[50.931
8041,32.5985097],[50.99653,32.5546268],[51.0079166,32.5240621],[50.9684705,32.4335058],[50.973194,32.3882322],[51.144311
9,32.2876719],[51.2337608,32.1743356],[51.3457126,32.1396181],[51.3857121,32.0915555],[51.3768256,32.0557275],[51.414325
3,32.0323871],[51.4343282,31.9721088],[51.4132154,31.9523803],[51.4282151,31.9268282],[51.4096022,31.858497],[51.2968203
,31.8229413],[51.2854305,31.8021027],[51.3690463,31.7126555],[51.3054338,31.6618246],[51.2965441,31.5157101],[51.259598,
31.4607111],[51.2884877,31.4451559],[51.3140441,31.3934804],[51.2932112,31.365702],[51.3371005,31.2965324],[51.3298774,3
1.1959862],[51.2237637,31.2237608],[51.1804259,31.2098696],[51.179041,31.1748696],[51.1529267,31.1498667],[51.06952,31.1
878167]]]}},{"type":"Feature","properties":{"province_name":" ","name_fa":""},"geometry":{"type":"P
olygon","coordinates":[[[45.69252,33.69097],[45.642104,33.733966],[45.643764,33.772],[45.603272,33.803023],[45.511585,33
.945574],[45.431545,33.945556],[45.407661,33.977255],[45.466848,34.009822],[45.473516,34.075608],[45.581594,34.14613],[4
5.554874,34.195116],[45.581097,34.23956],[45.583566,34.302663],[45.538075,34.352107],[45.496178,34.336867],[45.439814,34
.458932],[45.521255,34.480982],[45.51199,34.551635],[45.5314626,34.6018982],[45.594687,34.5498888],[45.6834717,34.559576
9],[45.7432041,34.5380347],[45.702625,34.693772],[45.653259,34.72311],[45.69876,34.77002],[45.689538,34.815161],[45.7368
9,34.846417],[45.753623,34.828685],[45.792074,34.853026],[45.788431,34.912296],[45.86504,34.896328],[45.897312,34.959992
],[45.876525,35.031513],[45.930795,35.045347],[45.921987,35.095489],[45.998198,35.061935],[46.015202,35.071155],[46.0594
26,35.037953],[46.08028,35.05592],[46.071919,35.083131],[46.116562,35.074065],[46.191291,35.110888],[46.155059,35.128999
],[46.154758,35.159001],[46.201247,35.201229],[46.177792,35.228359],[46.108403,35.241129],[46.14894,35.279894],[46.34713
86,35.1705126],[46.4465912,35.0538401],[46.5010369,35.0349514],[46.5562231,34.9219012],[46.6399327,34.8693974],[46.74354
83,34.8399508],[46.735492,34.7874429],[46.7829948,34.7393902],[46.894943,34.7643916],[47.0132854,34.7460585],[47.0885643
,34.7577246],[47.0671746,34.7924511],[47.1252335,34.8035574],[47.0721745,34.8510576],[47.0810636,34.8907797],[47.1732896
,34.9032836],[47.159679,34.9610643],[47.1732895,34.9724488],[47.2141256,34.9371676],[47.2432948,34.9532884],[47.2819082,
34.9277316],[47.3266309,34.9385662],[47.3082975,35.0063403],[47.3549665,35.0180041],[47.3608,35.052733],[47.399689,35.06
16181],[47.728592,35.0621781],[47.8030414,35.0149562],[47.8052646,34.980515],[47.8399878,34.938838],[47.9272133,34.92995
24],[47.9177704,34.8955089],[47.863601,34.8580062],[47.7971938,34.8511636],[47.8652683,34.7224487],[47.8555451,34.653559
8],[47.8730448,34.6293872],[47.9547173,34.6227191],[47.9994402,34.5866082],[48.0344432,34.5885573],[48.0497196,34.620499
7],[48.1013894,34.5296699],[48.090556,34.4935566],[48.1050029,34.4674413],[48.0858332,34.4182685],[48.0444438,34.3896611
],[47.989713,34.4013069],[47.9936287,34.364661],[47.9524951,34.3454946],[47.8866593,34.2552092],[47.8483233,34.2785479],
[47.8280466,34.3238259],[47.6952616,34.3754918],[47.6788719,34.3510532],[47.6944284,34.2760476],[47.5649772,34.1821484],
[47.488308,34.1829876],[47.4869185,34.1132645],[47.4319159,34.0963137],[47.423583,34.0646507],[47.4980321,33.9771508],[4
7.4927519,33.9485369],[47.4213599,33.9524271],[47.3913602,33.9304835],[47.3149679,33.9571477],[47.3866369,33.8613118],[4
7.343301,33.8160326],[47.3116348,33.8163123],[47.304412,33.791867],[47.1374601,33.8146418],[47.1063476,33.8404771],[47.0
927342,33.8243639],[47.0521778,33.8332553],[46.9971753,33.8115904],[46.9746759,33.7418645],[46.9202271,33.7685308],[46.8
596674,33.733532],[46.7627183,33.7713108],[46.7252193,33.7418638],[46.62077,33.8313134],[46.3557564,33.9704863],[46.2985
308,33.9954801],[46.2782541,33.9507633],[46.0549102,34.0377041],[45.9832378,33.9724168],[45.9193491,33.9688151],[45.8673
995,33.9890883],[45.8446235,33.9490921],[45.8537902,33.9265889],[45.9693482,33.8588075],[45.9215692,33.8379732],[45.8596
235,33.8432538],[45.8510102,33.7949231],[45.7701754,33.7040816],[45.69252,33.69097]]]}},{"type":"Feature","properties":{
"province_name":" ","name_fa":""},"geometry":{"type":"Polygon","coordinates":[[[48.4722371,34.0063171],[4
8.3791841,34.0013163],[48.304735,34.0213183],[48.3044582,34.0566015],[48.2405656,34.0491006],[48.1869531,34.0796536],[48
.053891,34.2127187],[47.9386057,34.2457689],[47.9002729,34.2385487],[47.8866593,34.2552092],[47.9524951,34.3454946],[47.
9936287,34.364661],[47.989713,34.4013069],[48.0444438,34.3896611],[48.0858332,34.4182685],[48.1050029,34.4674413],[48.09
0556,34.4935566],[48.1013894,34.5296699],[48.0466665,34.6229991],[48.0344432,34.5885573],[47.9994402,34.5866082],[47.954
7173,34.6227191],[47.865545,34.6332761],[47.8652683,34.7224487],[47.7971938,34.8511636],[47.8586012,34.8557778],[47.9086
037,34.8877324],[47.9227703,34.9518918],[47.9527696,34.9705112],[47.9999871,34.9612717],[48.040832,34.9860633],[48.07444
48,34.9616167],[48.1438907,34.9707822],[48.1758366,34.9988461],[48.1922262,35.0927395],[48.1525034,35.1180134],[48.18139
29,35.1610646],[48.1506136,35.2098726],[48.0958339,35.2282944],[48.0897204,35.2694025],[48.0266608,35.3707958],[47.94471
49,35.389679],[47.8660987,35.5582986],[47.8924882,35.5855279],[47.9741575,35.5741315],[48.0491627,35.6391369],[48.211114
1,35.6874692],[48.2516703,35.7202482],[48.2961198,35.6805276],[48.3916789,35.6430234],[48.4836278,35.6452504],[48.496127
8,35.598864],[48.5427971,35.5849702],[48.6639126,35.5988642],[48.7164155,35.5521872],[48.7530849,35.5702471],[48.7766977
,35.6141376],[48.770031,35.6785813],[48.7328049,35.6916443],[48.7289148,35.7119193],[48.7797506,35.7335824],[48.8839229,
35.6994157],[49.1272706,35.5688593],[49.1342137,35.5224694],[49.1608804,35.4933001],[49.428394,35.4266363],[49.3506119,3
5.2813548],[49.3747816,35.2632994],[49.3703351,35.234962],[49.426171,35.2221821],[49.4661739,35.1791241],[49.4628408,35.
1382925],[49.4111719,35.0341191],[49.3239462,35.0832977],[49.2608868,35.0516185],[49.2828334,35.0077337],[49.4142284,35.
0016269],[49.3897823,34.9174518],[49.3036666,34.9119035],[49.2117179,34.8421758],[49.1681052,34.8660652],[49.1492156,34.
7971742],[49.1031031,34.7535606],[49.1347728,34.6135541],[49.0811569,34.5846704],[49.060047,34.6349478],[49.0011545,34.5
974473],[49.0547675,34.5052174],[49.0036549,34.4657827],[49.003655,34.4238294],[48.9500427,34.388553],[49.007265,34.3843
837],[49.0208784,34.3096594],[49.1217173,34.2488219],[49.1233842,34.1910418],[49.093938,34.1627197],[49.1383843,34.11937
84],[49.1736636,34.1163187],[49.1672741,34.0935465],[49.0811585,34.0152091],[49.0111558,34.0221501],[48.948377,34.002707
4],[48.9161503,34.0285404],[48.9042073,34.0063179],[48.8611478,34.0010465],[48.8417048,34.0363209],[48.765589,34.072434]
,[48.7308659,34.1210474],[48.7133664,34.1221575],[48.7094765,34.0918759],[48.6576542,34.0760602],[48.6172508,34.0960456]
,[48.5858581,34.0635431],[48.5603017,34.0665938],[48.5269684,34.1071563],[48.5194655,34.0507621],[48.4722371,34.0063171]
]]}},{"type":"Feature","properties":{"province_name":" ","name_fa":""},"geometry":{"type":"Polygon","coor
dinates":[[[49.5427042,35.4027091],[49.391171,35.4252475],[49.1608804,35.4933001],[49.1342137,35.5224694],[49.1339371,35
.5627462],[49.0475413,35.6171944],[48.8839229,35.6994157],[48.7797506,35.7335824],[48.7363237,35.7239575],[48.7247478,35
.7494213],[48.7844737,35.8841459],[48.9033685,35.9824777],[48.9342018,35.9305373],[49.0553205,35.8783147],[49.0758768,35
.8899781],[49.0717101,35.9238678],[49.1517126,35.9299788],[49.2089383,35.9822079],[49.3019973,35.9758182],[49.3619997,36

.0108135],[49.4128357,36.07387],[49.4108922,36.1366516],[49.4336719,36.1930405],[49.3911688,36.2680397],[49.4245017,36.3
272128],[49.3708889,36.3385999],[49.3369993,36.3894352],[49.2775532,36.3883271],[49.1911575,36.4286022],[49.109765,36.43
36014],[49.0605954,36.4958249],[48.9719792,36.5533242],[49.1083657,36.7780687],[49.1891487,36.7607539],[49.2806052,36.81
55578],[49.484227,36.6080555],[49.615622,36.606939],[49.7876613,36.5593829],[49.9008466,36.5825708],[49.9359834,36.57249
61],[49.938971,36.6026379],[50.0581539,36.6040616],[50.1714824,36.6688887],[50.2320418,36.6786142],[50.4462162,36.610551
6],[50.5920582,36.5268767],[50.6798406,36.4999976],[50.8387356,36.4005536],[50.8565154,36.3455479],[50.8479127,36.294016
1],[50.6534512,36.33471],[50.4959428,36.3422142],[50.4134978,36.3090408],[50.4320636,36.2452451],[50.6781745,36.1152612]
,[50.5776122,36.0824867],[50.5473363,36.0183135],[50.4259411,36.0016496],[50.3731618,35.8983085],[50.2970462,35.8224764]
,[50.250403,35.806938],[50.2437107,35.6477508],[50.1634282,35.6141399],[50.2289876,35.5405225],[50.0042535,35.5035807],[
49.8803583,35.5469146],[49.7928561,35.5133096],[49.6875739,35.5341379],[49.6697942,35.5183046],[49.6936838,35.4810829],[
49.6842407,35.4488555],[49.6228485,35.4488555],[49.5427042,35.4027091]]]}},{"type":"Feature","properties":{"province_nam
e":" ","name_fa":""},"geometry":{"type":"Polygon","coordinates":[[[49.878335,36.5781833],[49.7876613,36.5
593829],[49.615622,36.606939],[49.4750603,36.6130538],[49.2375491,36.8500039],[49.2144926,36.9008328],[49.1703228,36.918
9003],[49.0567071,37.0544501],[48.9308649,37.1516745],[48.8953085,37.2255624],[48.9047549,37.3144585],[48.7152994,37.474
1889],[48.6800198,37.5928009],[48.6252935,37.6330795],[48.5958469,37.6905837],[48.639463,37.7216943],[48.6541827,37.7789
116],[48.5919597,37.8030771],[48.5708464,37.9019768],[48.6205722,38.0133698],[48.6330717,38.1130875],[48.6830743,38.1522
617],[48.6666845,38.1786488],[48.6900177,38.2222562],[48.6716842,38.2897628],[48.6391812,38.2908765],[48.5739016,38.3617
065],[48.5818264,38.4603383],[48.6018782,38.4173601],[48.6622715,38.3929551],[48.7383031,38.4111207],[48.7913236,38.4517
477],[49.2123986,38.4083871],[49.0663083,37.966461],[49.1204966,37.7506298],[49.1957131,37.6751317],[49.4286418,37.57392
05],[49.7869314,37.5271119],[49.8572953,37.5508405],[49.9567752,37.5521229],[50.033611,37.5008104],[50.2325693,37.465510
6],[50.292419,37.4359754],[50.4388082,37.1715669],[50.6550013,37.0454031],[50.5201082,36.8808404],[50.432606,36.8566679]
,[50.4323293,36.7300045],[50.3564903,36.6394415],[50.2012056,36.6780559],[50.0581539,36.6040616],[49.938971,36.6026379],
[49.9359834,36.5724961],[49.878335,36.5781833]]]}},{"type":"Feature","properties":{"province_name":" ","name_f
a":""},"geometry":{"type":"Polygon","coordinates":[[[48.7250284,35.5548745],[48.6986389,35.5530258],[48.6639126,35.
5988642],[48.5255742,35.5883061],[48.495018,35.5999729],[48.4836278,35.6452504],[48.3916789,35.6430234],[48.2961198,35.6
805276],[48.2491702,35.7235838],[48.192501,35.7291459],[48.1733344,35.7883087],[48.0511056,35.8074728],[47.9999924,35.93
3032],[47.9097105,35.8891465],[47.8677643,35.9069207],[47.8622074,35.9413596],[47.9822125,35.9710839],[47.9030436,36.002
2039],[47.9549895,36.049977],[47.994992,36.1397035],[47.9469321,36.2219334],[47.9563786,36.2813709],[47.9413786,36.31026
38],[47.7822034,36.3719379],[47.6596985,36.3805406],[47.5283028,36.4249865],[47.4032943,36.4130417],[47.3552376,36.47526
68],[47.3294013,36.6108249],[47.2913448,36.6863798],[47.2130085,36.7336091],[47.1741153,36.791667],[47.3027333,36.897227
8],[47.4924644,37.0000012],[47.5241339,37.0672274],[47.59886,37.0375081],[47.663029,37.0994478],[47.7660877,37.0763991],
[47.7788675,37.1322247],[47.8508135,37.171956],[47.9483186,37.1652881],[47.9833218,37.1477849],[47.9993331,37.112217],[4
8.0411012,37.1494499],[48.0997139,37.1558395],[48.1502733,37.2211248],[48.3922305,37.2516826],[48.4408434,37.2116773],[4
8.4741762,37.2102915],[48.5091796,37.1383458],[48.5464026,37.1352862],[48.5775155,37.1030587],[48.6558547,37.1291758],[4
8.7375235,37.1855641],[48.7900263,37.1391743],[48.8153061,37.1541761],[48.8697522,37.1464009],[48.9222549,37.1766737],[4
8.9319782,37.1502887],[49.0567071,37.0544501],[49.1703228,36.9189003],[49.2144926,36.9008328],[49.2314356,36.8575033],[4
9.2806052,36.8155578],[49.1891487,36.7607539],[49.1083657,36.7780687],[49.0664862,36.7191856],[49.061816,36.6801731],[49
.0186487,36.6511105],[48.9755927,36.5461009],[49.0605954,36.4958249],[49.109765,36.4336014],[49.1911575,36.4286022],[49.
2775532,36.3883271],[49.3369993,36.3894352],[49.3708889,36.3385999],[49.4245017,36.3272128],[49.3911688,36.2680397],[49.
4336719,36.1930405],[49.3978359,36.0463661],[49.3019973,35.9758182],[49.2089383,35.9822079],[49.1517126,35.9299788],[49.
0717101,35.9238678],[49.0758768,35.8899781],[49.0486539,35.8780353],[48.9342018,35.9305373],[48.9033685,35.9824777],[48.
7872534,35.8872014],[48.7244712,35.7513594],[48.7328049,35.6916443],[48.770031,35.6785813],[48.7750314,35.6013619],[48.7
250284,35.5548745]]]}},{"type":"Feature","properties":{"province_name":" ","name_fa":""},"geometry":{"typ
e":"Polygon","coordinates":[[[51.9685142,35.1399642],[51.8723985,35.2810784],[51.9439291,35.3613021],[51.9124013,35.4144
115],[51.923511,35.5458079],[51.9579572,35.5780235],[51.9935134,35.5685834],[52.0351831,35.4935832],[52.2576937,35.44052
64],[52.3790892,35.3374621],[52.5363172,35.4016339],[52.6674356,35.5358092],[52.7132718,35.5552487],[52.801054,35.549415
1],[52.8991128,35.6419201],[52.995785,35.6788656],[53.1527365,35.7919297],[53.1399566,35.8183142],[53.0205078,35.8355399
],[53.0207845,35.8841507],[53.0649541,35.9149853],[53.2205156,35.9269277],[53.2246855,35.9680443],[53.3705239,36.0602662
],[53.6791502,36.0983219],[53.8874946,36.219994],[53.9538838,36.305829],[53.8799913,36.3672156],[53.9391606,36.4374972],
[54.0124998,36.4455501],[54.155285,36.4997206],[54.508911,36.5147261],[54.5708602,36.5449978],[54.6494727,36.6180556],[5
4.7008655,36.6325007],[54.7780913,36.6002781],[54.8653169,36.6294477],[55.0100454,36.767221],[55.4008978,36.8169571],[55
.5000701,36.9011157],[55.5603495,36.9252866],[55.6214658,37.0991758],[55.705915,37.1919577],[55.7164715,37.2664082],[55.
8223071,37.322245],[55.908423,37.3323405],[55.9087027,37.2055724],[55.9514823,37.2044565],[56.0087049,37.2344567],[56.06
28744,37.1608486],[55.9942616,37.1191819],[56.0400978,37.1002915],[56.0145379,37.0069571],[55.9791784,36.9962453],[55.98
42616,36.9000082],[56.015651,36.8336127],[56.2214921,36.9008362],[56.2645516,36.8380601],[56.3651105,36.7530568],[56.361
2239,36.6816685],[56.4465028,36.6941673],[56.4978956,36.6647208],[56.5937346,36.668611],[56.7584628,36.7038922],[56.7692
958,36.6158298],[56.8420784,36.5897217],[56.8654112,36.5566687],[56.8640245,36.5208313],[56.8167982,36.4619424],[56.6984
597,36.3883299],[56.7331824,36.313053],[56.800408,36.2386072],[56.7312388,36.0899851],[56.7217953,35.8599842],[56.915412
6,35.6927568],[57.0451409,35.5469161],[56.9909714,35.4505255],[57.0501403,35.3071863],[57.0002296,35.2152486],[56.855689
3,35.2024685],[56.6909577,35.0624638],[56.5367828,35.0477427],[56.4537237,34.9999609],[56.1639868,34.6263434],[55.916199
5,34.2443852],[52.8863373,34.2488261],[52.6732697,34.3666098],[52.4999285,34.4191138],[52.3943698,34.4293925],[52.155189
3,34.4013356],[52.0146278,34.4305022],[51.8335099,34.5071703],[51.8403823,34.5680611],[51.8885126,34.635511],[51.9590713
,34.8580124],[52.0404635,35.0152423],[52.0357403,35.0888484],[51.9685142,35.1399642]]]}},{"type":"Feature","properties":
{"province_name":" ","name_fa":""},"geometry":{"type":"Polygon","coordinates":[[[51.7854549,30.701524],
[51.5084986,30.8784775],[51.3776605,30.9965304],[51.3421007,31.0626407],[51.3271009,31.1212606],[51.3371005,31.2965324],
[51.2934877,31.3640409],[51.3140441,31.3798755],[51.3037675,31.4209882],[51.259598,31.4607111],[51.2965441,31.5157101],[
51.3054338,31.6618246],[51.3690463,31.7126555],[51.2854305,31.8021027],[51.2968203,31.8229413],[51.4121055,31.8618287],[
51.429325,31.9998914],[51.3784923,32.0526666],[51.3857121,32.0915555],[51.3457126,32.1396181],[51.2337608,32.1743356],[5
1.1443119,32.2876719],[50.973194,32.3882322],[50.9684705,32.4335058],[51.0079166,32.5240621],[50.99653,32.5546268],[50.9
318041,32.5985097],[50.9170809,32.664903],[50.887358,32.6962892],[50.8523551,32.7121267],[50.6518463,32.7105145],[50.565
016,32.6723313],[50.5622097,32.6883087],[50.548673,32.6799061],[50.5498848,32.7138973],[50.5270627,32.7179593],[50.45817
05,32.6607308],[50.5176162,32.631566],[50.4912268,32.5912856],[50.3153859,32.5371178],[50.2559398,32.5643506],[50.153711
1,32.6637915],[50.0445391,32.6274027],[49.9823168,32.6346172],[49.767306,32.7640711],[49.7317498,32.806572],[49.7486925,
32.8557365],[49.6823002,32.8990767],[49.6375772,32.9774138],[49.7078563,32.982407],[49.6536869,33.0101894],[49.6689667,3
3.0501881],[49.722026,33.0843538],[49.837308,33.0499084],[49.9214799,33.0721379],[49.9187001,33.1004708],[49.8767539,33.
1321351],[49.8906435,33.1446311],[49.8714771,33.191301],[49.8895336,33.2196333],[49.9470359,33.2299169],[49.9375892,33.2
471437],[50.0000919,33.3060283],[50.018148,33.3685323],[49.9478688,33.3874196],[49.959812,33.4157504],[49.9903684,33.419
9214],[49.9720351,33.4676986],[49.9837016,33.4924176],[50.1917691,33.5310397],[50.2353814,33.6035334],[50.2731613,33.582
4265],[50.3370535,33.615757],[50.4537253,33.6346521],[50.5631739,33.6282607],[50.7006785,33.7263176],[50.8870763,33.7057
624],[51.0093045,33.7729798],[51.050974,33.8274312],[51.0320842,33.8529864],[51.0487506,33.9366011],[51.0200362,33.98183
51],[51.0526483,34.0387274],[50.9081887,34.1518826],[50.9948608,34.234664],[51.0140271,34.287443],[51.0115269,34.3721675
],[51.1773681,34.4443897],[51.3259864,34.4410599],[51.8007816,34.510984],[52.139633,34.4027254],[52.3943698,34.4293925],
[52.5635444,34.4049456],[52.7485521,34.3332726],[52.8921704,34.2485553],[55.4786782,34.2518854],[55.497844,33.5290919],[
55.3858954,33.3643638],[55.2225541,33.324088],[54.9917104,33.1257457],[54.8972616,33.1801987],[54.790313,33.1179718],[54
.7447535,33.0657485],[54.5500228,33.0907497],[54.3483488,33.0529635],[54.3075126,33.0301923],[54.283623,32.9601897],[54.

2241771,32.8988003],[53.941384,32.7988012],[53.842492,32.6860155],[53.4624737,32.6951803],[53.1866274,32.6176809],[53.01
52331,32.5154586],[53.058846,32.3321159],[53.0424564,31.9898882],[53.009677,31.8546066],[53.0530131,31.7459903],[53.1980
177,31.6134876],[53.1944078,31.573212],[52.9938406,31.4954342],[52.754944,31.4962646],[52.3935389,31.5482125],[52.247420
9,31.6615455],[52.1304691,31.6565526],[52.0463004,31.59571],[51.9365721,31.4134866],[51.9679618,31.1943167],[51.8976831,
30.9893098],[51.8354575,30.8934789],[51.8585137,30.8004145],[51.8326809,30.7404135],[51.7854549,30.701524]]]}},{"type":"
Feature","properties":{"province_name":"    ","name_fa":"  "},"geometry":{"type":
"Polygon","coordinates":[[[50.6031831,29.9437282],[50.5737369,29.9245595],[50.5342908,29.9762298],[50.5392903,30.0731804
],[50.5770698,30.1253977],[50.5138933,30.1660606],[50.5207594,30.3904245],[50.4526215,30.4322936],[50.3864593,30.5235268
],[50.5060119,30.5305816],[50.5495662,30.5630552],[50.5339013,30.5996434],[50.4237277,30.6651337],[50.392841,30.7313077]
,[50.3354417,30.7087156],[50.2541769,30.7555763],[50.2315138,30.7905283],[50.2434539,30.8325063],[50.2104225,30.9322635]
,[50.0697479,30.8299317],[50.0333405,30.8713077],[49.9555053,30.877364],[49.9511414,30.9293713],[49.9236754,30.9277065],
[49.8865088,30.9625502],[49.97143,31.0129259],[49.9475175,31.0748626],[49.9899942,31.1256725],[49.95467,31.2114047],[50.
099861,31.2575942],[50.1527063,31.2518317],[50.2467612,31.306489],[50.2998317,31.3584786],[50.2479222,31.4182174],[50.25
40909,31.4483382],[50.2932415,31.4815706],[50.3795569,31.4173669],[50.476229,31.4276498],[50.5003954,31.4526482],[50.574
8441,31.4087636],[50.6395699,31.42765],[50.7198524,31.3832062],[50.7892982,31.3143162],[50.8570867,31.2904206],[50.89236
62,31.3087554],[50.9245891,31.2984821],[50.963202,31.2604226],[50.9694423,31.2265568],[51.0406997,31.1787511],[51.078477
6,31.1887642],[51.1529267,31.1498667],[51.179041,31.1748696],[51.1804259,31.2098696],[51.2237637,31.2237608],[51.3298774
,31.1959862],[51.3298776,31.1020875],[51.3776605,30.9965304],[51.5084986,30.8784775],[51.8340676,30.6659746],[51.8882369
,30.5981899],[51.8335144,30.519299],[51.8374012,30.4537399],[51.7429526,30.3715171],[51.6193375,30.4437414],[51.5746115,
30.4223552],[51.3743279,30.4759652],[51.3496013,30.562633],[51.2112632,30.6531948],[51.1773736,30.6498557],[51.1365375,3
0.5984689],[51.1429277,30.5640225],[51.2195967,30.4542988],[51.294879,30.3845735],[51.2384865,30.3362448],[51.2690428,30
.2795718],[51.1779276,30.2062363],[51.1423714,30.2156827],[51.1065353,30.1876232],[51.0662558,30.2003987],[51.050423,30.
1806761],[50.9559742,30.1559554],[50.9248614,30.1151223],[50.9031953,30.03484],[50.8465261,29.9656759],[50.686795,29.995
9588],[50.6031831,29.9437282]]]}},{"type":"Feature","properties":{"province_name":" ","name_fa":""},"
geometry":{"type":"Polygon","coordinates":[[[46.8977236,34.7643915],[46.7677187,34.7432789],[46.7332716,34.7941102],[46.
7435483,34.8399508],[46.6399327,34.8693974],[46.5562231,34.9219012],[46.4996471,35.0363406],[46.4465912,35.0538401],[46.
3471386,35.1705126],[46.2171325,35.2377326],[46.050838,35.387981],[45.985425,35.496023],[45.992784,35.519464],[46.017991
,35.520698],[45.972104,35.581178],[46.029957,35.576616],[46.013005,35.627783],[45.992997,35.634401],[46.009149,35.678707
],[46.042465,35.706728],[46.165081,35.688964],[46.19956,35.722322],[46.277041,35.728866],[46.305853,35.761978],[46.33332
1,35.763349],[46.340244,35.819902],[46.294615,35.835867],[46.212274,35.794952],[46.183814,35.812492],[46.167906,35.79999
3],[46.137288,35.843527],[46.078562,35.85843],[46.024647,35.834468],[45.964013,35.843593],[45.954344,35.822803],[45.8960
36,35.837649],[45.874868,35.811362],[45.80038,35.827039],[45.763701,35.799014],[45.665625,35.926916],[45.5579743,35.9951
027],[45.5545969,36.07414],[45.6746055,36.107753],[45.6412687,36.1388683],[45.6796053,36.1724786],[45.6832145,36.2247025
],[45.7323843,36.2388663],[45.8301661,36.2191437],[45.9471146,36.2391462],[45.9846175,36.2810865],[45.9540609,36.3933188
],[45.9923967,36.4249824],[46.1454585,36.4633196],[46.1996276,36.4544294],[46.2801875,36.388041],[46.3221337,36.3774833]
,[46.4168591,36.3858163],[46.4596381,36.4163721],[46.6743725,36.3960954],[46.8029876,36.4238767],[46.8971601,36.383043],
[46.9216069,36.3227659],[47.0179989,36.3191536],[47.080502,36.2508172],[47.1605078,36.2433122],[47.2985693,36.2477635],[
47.3463491,36.2777567],[47.392185,36.3344337],[47.3657952,36.3869358],[47.3713514,36.4380475],[47.4121843,36.409988],[47
.5216327,36.4261035],[47.6596985,36.3805406],[47.7822034,36.3719379],[47.9413786,36.3102638],[47.9563786,36.2813709],[47
.9469321,36.2219334],[47.994992,36.1397035],[47.9549895,36.049977],[47.9030436,36.0022039],[47.9822125,35.9710839],[47.8
622074,35.9413596],[47.8608176,35.9158076],[47.9097105,35.8891465],[47.9999924,35.933032],[48.0511056,35.8074728],[48.17
16676,35.7891381],[48.192501,35.7291459],[48.2516703,35.7202482],[48.2111141,35.6874692],[48.0491627,35.6391369],[47.974
1575,35.5741315],[47.8924882,35.5855279],[47.8658221,35.5505264],[47.9447149,35.389679],[48.0266608,35.3707958],[48.0897
204,35.2694025],[48.0958339,35.2282944],[48.139723,35.2221796],[48.1811128,35.1652316],[48.1525034,35.1180134],[48.19222
62,35.0927395],[48.1758366,34.9988461],[48.1391673,34.9685631],[48.0858314,34.9616168],[48.043052,34.9860633],[47.999987
1,34.9612717],[47.9527696,34.9705112],[47.9223534,34.9345351],[47.8836008,34.926894],[47.8322113,34.945225],[47.8030414,
35.0149562],[47.728592,35.0621781],[47.399689,35.0616181],[47.3608,35.052733],[47.3549665,35.0180041],[47.3082975,35.006
3403],[47.3266309,34.9385662],[47.2819082,34.9277316],[47.2432948,34.9532884],[47.2141256,34.9371676],[47.1732895,34.972
4488],[47.159679,34.9610643],[47.1732896,34.9032836],[47.0810636,34.8907797],[47.0721745,34.8510576],[47.1252335,34.8035
574],[47.0671746,34.7924511],[47.0885643,34.7577246],[47.0132854,34.7460585],[46.8977236,34.7643915]]]}},{"type":"Featur
e","properties":{"province_name":"  ","name_fa":" "},"geometry":{"type":"Polygon","coordi
nates":[[[45.5184017,35.9957851],[45.4399233,35.9989647],[45.3933796,35.9669948],[45.3485103,35.9785782],[45.341761,36.0
08539],[45.381363,36.08418],[45.327046,36.139867],[45.316386,36.183547],[45.330546,36.214017],[45.265754,36.253206],[45.
304553,36.273747],[45.260964,36.301289],[45.283314,36.336817],[45.272404,36.393518],[45.236723,36.434077],[45.149108,36.
404341],[45.081587,36.42549],[45.053896,36.506649],[45.001556,36.538382],[45.037641,36.560903],[45.028064,36.605184],[45
.0707771,36.6302428],[45.057093,36.702536],[45.012914,36.753236],[44.972409,36.749348],[44.940179,36.785928],[44.844998,
36.778703],[44.838355,36.815753],[44.903699,36.86141],[44.912415,36.917009],[44.882687,36.954349],[44.905552,37.009779],
[44.854548,37.04709],[44.807265,37.044148],[44.777723,37.075656],[44.783908,37.092362],[44.749666,37.112879],[44.7849294
,37.1450862],[44.7575679,37.2283412],[44.814586,37.27806],[44.799184,37.310113],[44.732434,37.342232],[44.7214731,37.375
6933],[44.6573683,37.3859048],[44.630891,37.431615],[44.5798293,37.4476059],[44.614409,37.602176],[44.56816,37.644762],[
44.6280768,37.7021432],[44.6206225,37.7270202],[44.5545718,37.7806258],[44.4449506,37.7709171],[44.4483769,37.8065854],[
44.4237529,37.799449],[44.3944467,37.8230608],[44.404986,37.847003],[44.388189,37.862511],[44.2673977,37.8673051],[44.22
27458,37.8882392],[44.251232,37.9433704],[44.2407127,37.9650564],[44.3013231,38.0325345],[44.311362,38.0728943],[44.3293
645,38.098353],[44.3645086,38.1039085],[44.3511809,38.1349942],[44.3926934,38.1464431],[44.4117396,38.2195101],[44.40226
85,38.2520003],[44.492951,38.3036964],[44.5125314,38.3412598],[44.4627198,38.3594066],[44.4493712,38.3854921],[44.379645
1,38.3585915],[44.299987,38.3941676],[44.3198318,38.4086056],[44.3019383,38.4472285],[44.3254601,38.502081],[44.3093356,
38.5302464],[44.3216199,38.6240924],[44.2721185,38.6462477],[44.2826414,38.674969],[44.2540673,38.718334],[44.2801473,38
.7329247],[44.2864982,38.7831041],[44.3148195,38.8087951],[44.3009879,38.8408017],[44.245308,38.8506821],[44.2454553,38.
8702175],[44.2113518,38.8905571],[44.2188309,38.9167755],[44.1897152,38.9340273],[44.2002417,38.9480087],[44.1802595,38.
9560676],[44.1914252,38.9746819],[44.1717941,38.9917907],[44.211677,39.0209503],[44.1908665,39.0745913],[44.22591,39.095
0499],[44.2135655,39.1303045],[44.1663807,39.1776245],[44.0972566,39.2044917],[44.1032307,39.2425733],[44.0843065,39.256
0217],[44.1080596,39.2842966],[44.0812513,39.2941275],[44.0732183,39.3356242],[44.0318908,39.3717259],[44.0710893,39.412
3425],[44.1301049,39.4054092],[44.1301405,39.3896441],[44.2331218,39.4155361],[44.2952003,39.3752581],[44.3770211,39.411
6375],[44.4219571,39.4116039],[44.4328572,39.4427251],[44.4084339,39.4711492],[44.440367,39.505069],[44.416204,39.55644]
,[44.480148,39.610424],[44.487663,39.642549],[44.4671974,39.6841019],[44.614695,39.7824624],[44.6478404,39.7273554],[44.
7150829,39.7142776],[44.8219144,39.6112697],[44.8755201,39.6152092],[44.8760247,39.5930064],[44.8972058,39.6052331],[44.
8883296,39.5817248],[44.9157487,39.5659961],[44.9097716,39.5250712],[44.9518498,39.4921687],[44.9399284,39.459659],[44.9
771798,39.4487743],[44.9608079,39.4421583],[44.9645597,39.421841],[45.021813,39.4044283],[45.0867037,39.3512472],[45.080
3208,39.3335707],[45.1286003,39.3012738],[45.1178194,39.2868354],[45.1419814,39.2844706],[45.1529322,39.2163506],[45.184
7708,39.2205229],[45.2476296,39.1856003],[45.316613,39.1984975],[45.3275812,39.1859033],[45.3042399,39.166023],[45.34978
13,39.1705737],[45.3546876,39.1263944],[45.4024111,39.0916736],[45.4030843,39.0727792],[45.4569034,39.0511283],[45.43688
99,39.0117784],[45.4529047,38.9929965],[45.3779074,38.9625519],[45.329295,38.8922705],[45.2651265,38.8539317],[45.275683
7,38.7319877],[45.2334572,38.66504],[45.2929078,38.5339291],[45.339577,38.4864231],[45.2698514,38.4417052],[45.2104025,3
8.4300311],[45.0820642,38.3325346],[45.1280592,38.1915139],[45.30281,38.1583172],[45.3484723,38.1245645],[45.3749078,38.
0226729],[45.2801507,37.942032],[45.292854,37.8604891],[45.3563683,37.7386848],[45.5946336,37.4257989],[45.7808896,37.22

8471],[45.7509927,37.1836129],[46.0046132,37.1505605],[46.175456,36.9955512],[46.1774022,36.9552699],[46.1987926,36.9444
408],[46.2862944,36.9716711],[46.4124124,37.0563881],[46.4476919,37.1013887],[46.4960282,37.0919479],[46.4607487,37.0202
777],[46.6421472,37.0411149],[46.7093696,37.0724994],[46.8019014,37.0492971],[46.8627115,36.9997297],[46.8318781,36.9761
102],[46.8427122,36.927501],[46.8988245,36.8947151],[46.8779925,36.7799973],[46.9979975,36.7452781],[47.0368872,36.80138
15],[47.1405026,36.8322183],[47.2130085,36.7336091],[47.2913448,36.6863798],[47.3294013,36.6108249],[47.3713513,36.43887
63],[47.3657952,36.3869358],[47.3880185,36.3222085],[47.312736,36.2513763],[47.1899545,36.2416544],[47.080502,36.2508172
],[47.0179989,36.3191536],[46.9216069,36.3227659],[46.8971601,36.383043],[46.7888209,36.4269304],[46.7560413,36.4055363]
,[46.7296517,36.4155441],[46.6743725,36.3960954],[46.4596381,36.4163721],[46.4168591,36.3858163],[46.3221337,36.3774833]
,[46.2801875,36.388041],[46.1996276,36.4544294],[46.0976794,36.4563747],[45.9923967,36.4249824],[45.9540609,36.3933188],
[45.9846175,36.2810865],[45.9551718,36.2435882],[45.8301661,36.2191437],[45.698771,36.2352622],[45.6743245,36.2138633],[
45.6796053,36.1724786],[45.6412687,36.1388683],[45.6746055,36.107753],[45.5545969,36.07414],[45.5579743,35.9951027],[45.
5184017,35.9957851]]]}},{"type":"Feature","properties":{"province_name":" ","name_fa":""},"geometry":{"type
":"Polygon","coordinates":[[[53.9922201,27.1889532],[53.9333276,27.1236778],[53.7960999,27.0458956],[53.6322058,27.09839
66],[53.5419239,27.1578432],[53.496088,27.1011746],[53.4096961,27.1139499],[53.3535802,27.1911741],[53.1307937,27.272013
6],[53.0496784,27.2750621],[52.9438433,27.3295156],[52.7546663,27.5028527],[52.6238284,27.5634067],[52.5632693,27.624514
8],[52.5016001,27.7864703],[52.3879852,27.9931387],[52.2652003,28.0442452],[52.1707517,28.130082],[52.1254724,28.1995309
],[52.1229722,28.2623041],[52.0540799,28.4284232],[51.9604644,28.8212057],[51.8674055,28.9798252],[51.79407,29.0445478],
[51.8151794,29.068163],[51.8093463,29.0995487],[51.6740614,29.2342696],[51.587116,29.3914949],[51.5085004,29.4528891],[5
1.4276615,29.475107],[51.364606,29.4634389],[51.3209933,29.4976138],[51.2701572,29.6081709],[51.2996034,29.6784425],[51.
2782135,29.7006648],[51.1726518,29.7142832],[50.9998675,29.7828922],[50.8154136,29.7753968],[50.7037418,29.7915055],[50.
6448493,29.822064],[50.6751287,29.8628971],[50.7137415,29.873171],[50.6456824,29.9354023],[50.6031831,29.9437282],[50.61
59594,29.9601188],[50.686795,29.9959588],[50.8465261,29.9656759],[50.9031953,30.03484],[50.9248614,30.1151223],[50.95597
42,30.1559554],[51.050423,30.1806761],[51.0662558,30.2003987],[51.1065353,30.1876232],[51.1423714,30.2156827],[51.177927
6,30.2062363],[51.2690428,30.2795718],[51.2384865,30.3362448],[51.294879,30.3845735],[51.2195967,30.4542988],[51.1429277
,30.5640225],[51.1365375,30.5984689],[51.1773736,30.6498557],[51.2112632,30.6531948],[51.3496013,30.562633],[51.3665478,
30.4862435],[51.3993274,30.4637379],[51.4471068,30.4679069],[51.5746115,30.4223552],[51.6193375,30.4437414],[51.7429526,
30.3715171],[51.8262914,30.4365226],[51.8429576,30.4656874],[51.8335144,30.519299],[51.8882369,30.5981899],[51.7851782,3
0.7006937],[51.8326809,30.7404135],[51.8585137,30.8004145],[51.8354575,30.8934789],[51.8976831,30.9893098],[51.9679618,3
1.1943167],[51.9365721,31.4134866],[52.0463004,31.59571],[52.1304691,31.6565526],[52.2474209,31.6615455],[52.3935389,31.
5482125],[52.5596566,31.5123797],[52.8010566,31.4948743],[52.8485593,31.4476488],[52.9346715,31.4048746],[52.968841,31.3
618213],[52.9716178,31.2770885],[52.9457847,31.240988],[52.8688358,31.2237639],[52.831613,31.1865358],[52.9118953,31.121
2617],[52.9693979,31.0145934],[53.3774721,30.8254161],[53.4710875,30.7315245],[53.7838764,30.6751358],[53.854992,30.6479
168],[53.9108279,30.5918013],[53.9308275,30.5401367],[53.8986047,30.4456825],[53.9255511,30.3340175],[53.8641586,30.1937
419],[53.9399976,30.0615178],[54.0980585,29.9384533],[54.1030585,29.7928965],[54.2427864,29.5962233],[54.4764096,29.6412
243],[54.8161445,29.5937251],[54.983932,29.3948318],[55.1642158,29.253716],[55.2622777,29.0945466],[55.2806106,28.995102
5],[55.2481077,28.842599],[55.2519975,28.7239896],[55.3508892,28.6603707],[55.4528411,28.5439838],[55.4078383,28.4184168
],[55.386725,27.998693],[55.5006199,27.9234117],[55.5772885,27.7945249],[55.4806168,27.7292443],[55.4103378,27.6195123],
[55.3314457,27.5717377],[55.2567201,27.4956291],[55.1392152,27.4342357],[54.6289134,27.4678509],[54.3530677,27.4586846],
[54.1577842,27.4214541],[53.9686071,27.3500664],[53.9708304,27.3070144],[54.0349994,27.2350637],[53.9922201,27.1889532]]
]}},{"type":"Feature","properties":{"province_name":" ","name_fa":""},"geometry":{"type":"Polygon","coord
inates":[[[52.482398,26.989407],[51.2988492,27.699037],[50.1313982,29.0842133],[49.5801433,29.6674426],[50.1390342,30.17
59444],[50.2000071,30.2949624],[50.4165763,30.1821897],[50.5717901,30.137902],[50.5748464,30.1126229],[50.5392903,30.073
1804],[50.5342908,29.9762298],[50.5737369,29.9245595],[50.6031831,29.9437282],[50.642349,29.9373417],[50.7137415,29.8731
71],[50.6751287,29.8628971],[50.6445727,29.8287296],[50.6656856,29.8056752],[50.8373599,29.7734487],[50.9998675,29.78289
22],[51.1726518,29.7142832],[51.2873801,29.6948386],[51.2965467,29.6584482],[51.2701572,29.6081709],[51.3209933,29.49761
38],[51.364606,29.4634389],[51.4421081,29.4739979],[51.5515564,29.425388],[51.6740614,29.2342696],[51.8065698,29.1037131
],[51.8151794,29.068163],[51.79407,29.0445478],[51.8674055,28.9798252],[51.9604644,28.8212057],[52.0540799,28.4284232],[
52.1229722,28.2623041],[52.1254724,28.1995309],[52.1582518,28.1456406],[52.2652003,28.0442452],[52.3879852,27.9931387],[
52.5016001,27.7864703],[52.5427129,27.6631241],[52.6027152,27.5806265],[52.7546663,27.5028527],[52.9438433,27.3297854],[
52.8852276,27.2928411],[52.8165666,27.3237282],[52.7379214,27.2743065],[52.482398,26.989407]]]}},{"type":"Feature","prop
erties":{"province_name":" ","name_fa":""},"geometry":{"type":"Polygon","coordinates":[[[48.5872376,37.
1094519],[48.5091796,37.1383458],[48.4780662,37.2069532],[48.4208402,37.2219532],[48.4169537,37.2458431],[48.3350043,37.
2394544],[48.3352812,37.2664028],[48.1494391,37.416124],[48.1552721,37.4783524],[48.0608231,37.5147348],[48.0530467,37.5
333525],[48.079156,37.5783566],[48.0216532,37.6122422],[48.0255429,37.654462],[48.0666557,37.7294704],[48.1352716,37.752
2446],[48.1511045,37.8103041],[47.999403,37.8949567],[47.977486,37.8758633],[47.8930368,37.8683574],[47.887757,37.897804
7],[47.9377595,37.9466916],[47.9097032,37.9908649],[47.8622001,38.0066999],[47.8521997,38.1466985],[47.7874733,38.251422
8],[47.7246942,38.2122555],[47.6171887,38.2183641],[47.4827366,38.1819793],[47.4688466,38.2494817],[47.3985677,38.237812
5],[47.2871719,38.302263],[47.2907813,38.3319841],[47.345784,38.3569797],[47.4641225,38.4780964],[47.4985682,38.5811588]
,[47.5688509,38.6117084],[47.564954,38.6422788],[47.5257943,38.6697677],[47.4357886,38.7003296],[47.4313449,38.7564406],
[47.4696776,38.7914396],[47.5980199,38.8189437],[47.5116235,38.9158902],[47.5363466,38.9500526],[47.5266267,38.9586645],
[47.5630161,38.9775567],[47.50218,39.0000537],[47.5230132,39.0142262],[47.5052366,39.0353314],[47.5274594,39.0806154],[4
7.4974563,39.1283969],[47.5194023,39.1508961],[47.518569,39.2197857],[47.4810658,39.2725645],[47.5049349,39.2954356],[47
.4307925,39.3186376],[47.439111,39.3372671],[47.363399,39.4217256],[47.3775701,39.4549047],[47.5629369,39.5137751],[47.7
52969,39.606023],[47.8073216,39.6591904],[47.9174231,39.6614998],[47.9821222,39.7090003],[48.0320584,39.6925275],[48.368
6221,39.3798361],[48.2653165,39.3334445],[48.211001,39.3291082],[48.1297734,39.2713758],[48.1502833,39.1982545],[48.2184
151,39.1627439],[48.2349786,39.1296652],[48.3077928,39.1085272],[48.3332227,39.0211657],[48.2707532,38.9673018],[48.0882
345,38.9469508],[48.0692648,38.9109368],[48.01027,38.907306],[48.0207028,38.8378898],[48.1071082,38.7885576],[48.1073103
,38.7698813],[48.2491558,38.7260959],[48.252657,38.6619076],[48.2949419,38.6473191],[48.3102234,38.6076539],[48.361489,3
8.5948538],[48.4592932,38.6076878],[48.464684,38.5613214],[48.5055078,38.5470001],[48.5133037,38.518379],[48.579433,38.4
668173],[48.5739016,38.3617065],[48.6391812,38.2908765],[48.6716842,38.2897628],[48.6900177,38.2222562],[48.6666845,38.1
786488],[48.6830743,38.1522617],[48.6330717,38.1130875],[48.6205722,38.0133698],[48.5708464,37.9019768],[48.5919597,37.8
030771],[48.6541827,37.7789116],[48.639463,37.7216943],[48.5958469,37.6905837],[48.6252935,37.6330795],[48.6800198,37.59
28009],[48.7152994,37.4741889],[48.9105878,37.3036261],[48.8953085,37.2255624],[48.9222549,37.1766737],[48.8697522,37.14
64009],[48.8153061,37.1541761],[48.7900263,37.1391743],[48.7375235,37.1855641],[48.6558547,37.1291758],[48.5872376,37.10
94519]]]}},{"type":"Feature","properties":{"province_name":" ","name_fa":""},"geometry":{"type":"Po
lygon","coordinates":[[[52.2165806,35.7655351],[52.0726856,35.7633173],[52.0062932,35.7866467],[51.8782311,35.8599847],[
51.760449,36.0066529],[51.4448757,36.1494318],[51.315984,36.1544326],[51.2679243,36.1841587],[51.2015319,36.1624881],[50
.8479127,36.2940161],[50.8565154,36.3455479],[50.8345689,36.4047155],[50.6798406,36.4999976],[50.3598236,36.6416659],[50
.4323293,36.7300045],[50.432606,36.8566679],[50.5201082,36.8808404],[50.6550013,37.0454031],[50.9556187,36.8932945],[51.
2168547,36.8156359],[51.487796,36.7748336],[51.6236711,36.7197484],[51.9164495,36.6626774],[53.2905669,36.9308012],[53.8
526691,36.9844424],[53.8647148,36.6794543],[53.9647204,36.675285],[54.1172253,36.5977745],[54.1255585,36.4911097],[54.01
24998,36.4455501],[53.9391606,36.4374972],[53.8813813,36.3777735],[53.9538838,36.3099913],[53.9277742,36.2574933],[53.67
91502,36.0983219],[53.3705239,36.0602662],[53.2246855,35.9680443],[53.2232956,35.9283157],[53.0649541,35.9149853],[52.98
74517,35.83554],[52.9207825,35.8377573],[52.7049383,35.9280361],[52.5679864,35.943313],[52.4357581,35.9122089],[52.37825
55,35.8485917],[52.2165806,35.7655351]]]}},{"type":"Feature","properties":{"province_name":" ","name_fa":"

"},"geometry":{"type":"Polygon","coordinates":[[[54.3327929,36.510556],[54.1261152,36.4916591],[54.1280586,36.5702788
],[54.1044488,36.6158313],[53.9647204,36.675285],[53.8647148,36.6794543],[53.8526691,36.9844424],[53.897152,37.0186755],
[53.8623745,37.203783],[53.8777413,37.2469311],[53.8607569,37.32222],[53.9277235,37.3472619],[54.2446779,37.3199856],[54
.2851929,37.351769],[54.3976597,37.3606995],[54.5867621,37.4600312],[54.6736676,37.437055],[54.7925151,37.5254889],[54.8
152475,37.6062298],[54.7827548,37.6343399],[54.8402131,37.745694],[55.0233227,37.8429634],[55.0410295,37.8796158],[55.12
76555,37.9491996],[55.1695862,37.9606129],[55.2015097,37.9473068],[55.2271298,37.9792886],[55.384722,38.041944],[55.4427
78,38.086111],[55.756111,38.125278],[55.9625,38.078333],[56.164444,38.095],[56.216111,38.072222],[56.2889756,38.0846583]
,[56.3103894,37.9103136],[56.2803861,37.8672577],[56.2156603,37.8594822],[56.118711,37.6347476],[56.0612082,37.5722467],
[56.0584315,37.5191926],[56.0012054,37.4425221],[56.0164852,37.3702954],[55.8086256,37.3178633],[55.7200814,37.2711319],
[55.705915,37.1919577],[55.6214658,37.0991758],[55.5534062,36.918346],[55.5000701,36.9011157],[55.4008978,36.8169571],[5
5.0014356,36.7641687],[54.9122631,36.6644427],[54.8478172,36.6222252],[54.7678114,36.6002781],[54.7008655,36.6325007],[5
4.6447528,36.6161104],[54.5175242,36.5172211],[54.3327929,36.510556]]]}}]}
